{
  "type": "FeatureCollection",
  "name": "Alameda_TravelAnalysisZone_954",
  "crs": {
    "type": "name",
    "properties": {
      "name": "urn:ogc:def:crs:OGC:1.3:CRS84"
    }
  },
  "features": [
    {
      "type": "Feature",
      "properties": {
        "SUPERD": 18,
        "TAZ1454": 954,
        "Shape__Are": 0.0,
        "Shape__Len": 0.0
      },
      "geometry": {
        "type": "MultiPolygon",
        "coordinates": [
          [
            [
              [
                -122.25728000029704,
                37.75622900088199
              ],
              [
                -122.25698000019979,
                37.75662900049666
              ],
              [
                -122.2561800003697,
                37.757928000780325
              ],
              [
                -122.25508000007693,
                37.75952800089171
              ],
              [
                -122.25507999986246,
                37.76012800048076
              ],
              [
                -122.25477999998319,
                37.76082800062456
              ],
              [
                -122.25377999941716,
                37.76032800052295
              ],
              [
                -122.25358000043362,
                37.76122800079722
              ],
              [
                -122.25267999989292,
                37.762628000844366
              ],
              [
                -122.25598000045379,
                37.76412800067729
              ],
              [
                -122.25537999951428,
                37.76492800100458
              ],
              [
                -122.25478000028576,
                37.7657280008292
              ],
              [
                -122.25418000048832,
                37.76652800103797
              ],
              [
                -122.25098000009855,
                37.7651280008694
              ],
              [
                -122.24817999976995,
                37.76382800058026
              ],
              [
                -122.24527999941434,
                37.76262800100317
              ],
              [
                -122.24417999970863,
                37.76212800032373
              ],
              [
                -122.24488000009228,
                37.76132800026956
              ],
              [
                -122.24557999963064,
                37.760428000369544
              ],
              [
                -122.24628000020765,
                37.75952800061558
              ],
              [
                -122.24817999995172,
                37.75702800109675
              ],
              [
                -122.24864200001858,
                37.75633500088363
              ],
              [
                -122.24933399983242,
                37.75529800071905
              ],
              [
                -122.25018000039272,
                37.754029000565296
              ],
              [
                -122.25045300021344,
                37.75353300045391
              ],
              [
                -122.25728000029704,
                37.75622900088199
              ]
            ]
          ]
        ]
      }
    }
  ]
}