{
  "type": "FeatureCollection",
  "name": "Alameda_TravelAnalysisZone_958",
  "crs": {
    "type": "name",
    "properties": {
      "name": "urn:ogc:def:crs:OGC:1.3:CRS84"
    }
  },
  "features": [
    {
      "type": "Feature",
      "properties": {
        "SUPERD": 18,
        "TAZ1454": 958,
        "Shape__Are": 0.0,
        "Shape__Len": 0.0
      },
      "geometry": {
        "type": "MultiPolygon",
        "coordinates": [
          [
            [
              [
                -122.28049699994355,
                37.76638900032343
              ],
              [
                -122.28053899953291,
                37.76704200104861
              ],
              [
                -122.27896900008966,
                37.768135001000054
              ],
              [
                -122.27902499998444,
                37.768558001002745
              ],
              [
                -122.27871299977149,
                37.768567001108075
              ],
              [
                -122.27877999945645,
                37.77162800108064
              ],
              [
                -122.27728000048224,
                37.77162800046059
              ],
              [
                -122.2763480001495,
                37.771573000709175
              ],
              [
                -122.27558000006306,
                37.77152800057538
              ],
              [
                -122.2732800004239,
                37.771428000685965
              ],
              [
                -122.27337999996648,
                37.769528000728954
              ],
              [
                -122.27237999988341,
                37.7690280004716
              ],
              [
                -122.27178000001612,
                37.76882800024365
              ],
              [
                -122.2712530003794,
                37.76865200049828
              ],
              [
                -122.27117999998096,
                37.768628000571155
              ],
              [
                -122.2697800001759,
                37.768028000260585
              ],
              [
                -122.2687799999775,
                37.767628001083
              ],
              [
                -122.26777999974138,
                37.76712800061534
              ],
              [
                -122.26767999994976,
                37.76706800109222
              ],
              [
                -122.2667800000505,
                37.766528000655725
              ],
              [
                -122.26657999982302,
                37.76643600073636
              ],
              [
                -122.2654799999721,
                37.76592800098962
              ],
              [
                -122.26428000026284,
                37.76532800029157
              ],
              [
                -122.26355800000708,
                37.76514800051961
              ],
              [
                -122.263479999856,
                37.765128000641035
              ],
              [
                -122.26198000007373,
                37.764228000998976
              ],
              [
                -122.26227999995596,
                37.76362800077857
              ],
              [
                -122.26278000039103,
                37.763128001015744
              ],
              [
                -122.26350900025949,
                37.76187900075585
              ],
              [
                -122.26488000007645,
                37.75952800062488
              ],
              [
                -122.26530699949242,
                37.759058000239314
              ],
              [
                -122.27542999968112,
                37.763398001044756
              ],
              [
                -122.2753069994829,
                37.767579001099556
              ],
              [
                -122.27768799965955,
                37.76846400067835
              ],
              [
                -122.27845300005978,
                37.76795400109338
              ],
              [
                -122.28049699994355,
                37.76638900032343
              ]
            ]
          ]
        ]
      }
    }
  ]
}