{"type": "FeatureCollection", "name": "Alameda_TravelAnalysisZone960", "crs": {"type": "name", "properties": {"name": "urn:ogc:def:crs:OGC:1.3:CRS84"}}, "features": [{"type": "Feature", "properties": {"SUPERD": 18, "TAZ1454": 960, "Shape__Are": 0.0, "Shape__Len": 0.0}, "geometry": {"type": "MultiPolygon", "coordinates": [[[[-122.27707999949104, 37.788228000305104], [-122.27707999976711, 37.78582800088044], [-122.27707999961613, 37.785328001102975], [-122.27708499942891, 37.784444000317826], [-122.27707999942473, 37.78402800112627], [-122.27707999948873, 37.782332000655515], [-122.27708000034131, 37.78082800033315], [-122.2771000003662, 37.779959000310804], [-122.27707099965019, 37.77949300052968], [-122.27708000010314, 37.7784280006353], [-122.2770800003859, 37.777428000704234], [-122.27707999977248, 37.776528000527634], [-122.27708000029354, 37.77542800033569], [-122.27607999955055, 37.775328000674236], [-122.27317999991436, 37.77532800056358], [-122.27098000036437, 37.775228000719224], [-122.26997999952447, 37.7752280006068], [-122.26957999973875, 37.775128000444404], [-122.2690799994561, 37.77512800046847], [-122.26847999981766, 37.775128000404585], [-122.26778000014455, 37.77522800042059], [-122.26648000019341, 37.775028000758994], [-122.26518000010172, 37.77502800096897], [-122.26388000011359, 37.77502800035459], [-122.26258000021132, 37.77502800071832], [-122.26148000002492, 37.774928000355], [-122.26047999980167, 37.7747280010218], [-122.25958000013055, 37.774528000628436], [-122.25908000040856, 37.775428001059716], [-122.25848000032815, 37.77612800027164], [-122.2574799998275, 37.775728001059214], [-122.25647999991843, 37.775328000591806], [-122.25567999977523, 37.77492800056218], [-122.25548000014207, 37.77512800032921], [-122.25497999981492, 37.775928000351925], [-122.25429499992637, 37.775585000932615], [-122.25418000026927, 37.77552800100315], [-122.25399999990127, 37.775798000284745], [-122.25357999992679, 37.776428000780214], [-122.2525840002327, 37.77775600063342], [-122.25207999969882, 37.77842800058576], [-122.25537999987044, 37.77902800037359], [-122.25487999980618, 37.780428000487085], [-122.25688000005248, 37.7775280006902], [-122.2587799998293, 37.778628001122854], [-122.2571799999143, 37.78122800087956], [-122.25997999973522, 37.78262800028898], [-122.2608799997639, 37.778128000494426], [-122.26148000036058, 37.778328001137794], [-122.26158000037081, 37.7829280008442], [-122.26242200027878, 37.782798000678326], [-122.26288000019518, 37.78272800089572], [-122.26448000045892, 37.7837280008637], [-122.26558299998416, 37.78411700103374], [-122.26589600021288, 37.78422800045515], [-122.26618000013184, 37.78432800097452], [-122.26693999941237, 37.784094000690764], [-122.26848800025577, 37.78361800057319], [-122.26878000014513, 37.78352800079684], [-122.26907999995645, 37.785328001040085], [-122.26936699969336, 37.785703000500504], [-122.2703799996075, 37.78702800078272], [-122.26898000011647, 37.786428000411924], [-122.27167999997155, 37.788028000678516], [-122.27487999942005, 37.789228001123746], [-122.2753710606378, 37.790799396664006], [-122.27537014119345, 37.790799666779364], [-122.27536741144635, 37.79080076949089], [-122.27536480292835, 37.79080213445458], [-122.27536234076092, 37.790803748525065], [-122.27536004865607, 37.790805596157966], [-122.27514238856432, 37.79099941719679], [-122.27514271209958, 37.790997236099216], [-122.27514343439059, 37.790982533528165], [-122.27514271209958, 37.790967830957115], [-122.27514055218263, 37.790953269979866], [-122.27513697544094, 37.790938990826575], [-122.27513201632046, 37.79092513101331], [-122.27512572258023, 37.79091182401764], [-122.27511815483243, 37.79089919799321], [-122.27510938595859, 37.790887374535544], [-122.27509950040776, 37.79087646751099], [-122.2750885933832, 37.79086658196016], [-122.27507676992553, 37.79085781308632], [-122.2750641439011, 37.79085024533851], [-122.27505083690544, 37.79084395159829], [-122.27503697709217, 37.7908389924778], [-122.27502269793888, 37.790835415736105], [-122.27500813696163, 37.790833255819166], [-122.27499343439058, 37.79083253352817], [-122.27497873181953, 37.790833255819166], [-122.27496417084228, 37.790835415736105], [-122.27494989168899, 37.7908389924778], [-122.27493603187573, 37.79084395159829], [-122.27492272488006, 37.79085024533851], [-122.27491009885563, 37.79085781308632], [-122.27489827539796, 37.79086658196016], [-122.2748873683734, 37.79087646751099], [-122.27487748282257, 37.790887374535544], [-122.27486871394873, 37.79089919799321], [-122.27486114620093, 37.79091182401764], [-122.2748548524607, 37.79092513101331], [-122.27484989334022, 37.790938990826575], [-122.27484631659853, 37.790953269979866], [-122.27484415668158, 37.790967830957115], [-122.27484343439058, 37.790982533528165], [-122.27484415668158, 37.790997236099216], [-122.27484631659853, 37.791011797076465], [-122.27484989334022, 37.791026076229755], [-122.2748548524607, 37.79103993604302], [-122.27486114620093, 37.79105324303869], [-122.27486871394873, 37.79106586906312], [-122.27487748282257, 37.79107769252079], [-122.2748873683734, 37.79108859954534], [-122.27489827539796, 37.79109848509617], [-122.27491009885563, 37.79110725397001], [-122.27492272488006, 37.79111482171782], [-122.27493603187573, 37.79112111545804], [-122.27494989168899, 37.79112607457853], [-122.27496417084228, 37.791129651320226], [-122.27497873181953, 37.791131811237165], [-122.27499292752937, 37.79113250862767], [-122.27483967197732, 37.7912689789841], [-122.27483333553495, 37.791264279558156], [-122.27482070951052, 37.79125671181035], [-122.27480740251485, 37.79125041807013], [-122.27479354270159, 37.79124545894964], [-122.2747792635483, 37.79124188220794], [-122.27476470257105, 37.791239722291], [-122.27475, 37.791239000000004], [-122.27473529742895, 37.791239722291], [-122.2747207364517, 37.79124188220794], [-122.27470645729841, 37.79124545894964], [-122.27469259748514, 37.79125041807013], [-122.27467929048947, 37.79125671181035], [-122.27466666446504, 37.791264279558156], [-122.27465484100738, 37.791273048432], [-122.27464393398282, 37.79128293398283], [-122.27463404843199, 37.79129384100738], [-122.27462527955815, 37.79130566446505], [-122.27461771181035, 37.79131829048948], [-122.27461141807012, 37.79133159748515], [-122.27460645894963, 37.79134545729841], [-122.27460288220794, 37.7913597364517], [-122.274600722291, 37.79137429742895], [-122.27459999999999, 37.791389], [-122.274600722291, 37.79140370257105], [-122.27460288220794, 37.7914182635483], [-122.27460645894963, 37.79143254270159], [-122.27461141807012, 37.79144640251486], [-122.27461771181035, 37.79145970951053], [-122.27462527955815, 37.791472335534955], [-122.27463404843199, 37.791484158992624], [-122.27464393398282, 37.79149506601718], [-122.27465484100738, 37.79150495156801], [-122.27466666446504, 37.79151372044185], [-122.27467929048947, 37.79152128818966], [-122.27469259748514, 37.79152758192988], [-122.27470645729841, 37.791532541050366], [-122.2747207364517, 37.79153611779206], [-122.27473529742895, 37.791538277709], [-122.27475, 37.791539], [-122.27476470257105, 37.791538277709], [-122.2747792635483, 37.79153611779206], [-122.27479354270159, 37.791532541050366], [-122.27480740251485, 37.79152758192988], [-122.27482070951052, 37.79152128818966], [-122.27483333553495, 37.79151372044185], [-122.27484515899262, 37.79150495156801], [-122.27485606601718, 37.79149506601718], [-122.274865951568, 37.791484158992624], [-122.27487472044184, 37.791472335534955], [-122.27488228818964, 37.79145970951053], [-122.27488858192987, 37.79144640251486], [-122.27489354105036, 37.79143254270159], [-122.27489711779205, 37.7914182635483], [-122.274899277709, 37.79140370257105], [-122.2749, 37.791389], [-122.274899277709, 37.79137429742895], [-122.27489711779205, 37.7913597364517], [-122.27489354105036, 37.79134545729841], [-122.27488858192987, 37.79133159748515], [-122.27488228818964, 37.79131829048948], [-122.27487958402268, 37.79131377885946], [-122.27539995019268, 37.790850405391126], [-122.27540205016072, 37.790848341989516], [-122.27540393776812, 37.790846082690884], [-122.27540559483619, 37.79084364925352], [-122.27540700540644, 37.790841065112744], [-122.27540815589433, 37.79083835515525], [-122.27540903522001, 37.79083554547941], [-122.27540963491512, 37.79083266314394], [-122.27540994920425, 37.7908297359073], [-122.27540997506063, 37.790826791960384], [-122.27540971223523, 37.79082385965501], [-122.27540916325923, 37.790820967230886], [-122.27540833341956, 37.79081814254363], [-122.27540723070803, 37.79081541279652], [-122.27540586574435, 37.790812804278524], [-122.27540487768897, 37.79081129705949], [-122.27545000008904, 37.79078100106717], [-122.27597999985332, 37.79042800083759], [-122.27667999963904, 37.78942800065896], [-122.27707999949104, 37.788228000305104]]]]}}]}