{
  "type": "FeatureCollection",
  "name": "Alameda_TravelAnalysisZone_957",
  "crs": {
    "type": "name",
    "properties": {
      "name": "urn:ogc:def:crs:OGC:1.3:CRS84"
    }
  },
  "features": [
    {
      "type": "Feature",
      "properties": {
        "SUPERD": 18,
        "TAZ1454": 957,
        "Shape__Are": 0.0,
        "Shape__Len": 0.0
      },
      "geometry": {
        "type": "MultiPolygon",
        "coordinates": [
          [
            [
              [
                -122.26530699949242,
                37.759058000239314
              ],
              [
                -122.26488000007645,
                37.75952800062488
              ],
              [
                -122.26350900025949,
                37.76187900075585
              ],
              [
                -122.26278000039103,
                37.763128001015744
              ],
              [
                -122.26227999995596,
                37.76362800077857
              ],
              [
                -122.26198000007373,
                37.764228000998976
              ],
              [
                -122.263479999856,
                37.765128000641035
              ],
              [
                -122.26355800000708,
                37.76514800051961
              ],
              [
                -122.26428000026284,
                37.76532800029157
              ],
              [
                -122.26427999946989,
                37.7656280004061
              ],
              [
                -122.26418000045545,
                37.76662800093265
              ],
              [
                -122.26418000045572,
                37.767328001031764
              ],
              [
                -122.26228000006984,
                37.76672800091693
              ],
              [
                -122.26068000007422,
                37.766128000585454
              ],
              [
                -122.25897999953669,
                37.76532800051256
              ],
              [
                -122.25697999994664,
                37.764528000977606
              ],
              [
                -122.25598000045379,
                37.76412800067729
              ],
              [
                -122.25267999989292,
                37.762628000844366
              ],
              [
                -122.25358000043362,
                37.76122800079722
              ],
              [
                -122.25377999941716,
                37.76032800052295
              ],
              [
                -122.25477999998319,
                37.76082800062456
              ],
              [
                -122.25507999986246,
                37.76012800048076
              ],
              [
                -122.25508000007693,
                37.75952800089171
              ],
              [
                -122.2561800003697,
                37.757928000780325
              ],
              [
                -122.25698000019979,
                37.75662900049666
              ],
              [
                -122.25728000029704,
                37.75622900088199
              ],
              [
                -122.26530699949242,
                37.759058000239314
              ]
            ]
          ]
        ]
      }
    }
  ]
}