{
  "type": "FeatureCollection",
  "name": "Alameda_TravelAnalysisZone949",
  "crs": {
    "type": "name",
    "properties": {
      "name": "urn:ogc:def:crs:OGC:1.3:CRS84"
    }
  },
  "features": [
    {
      "type": "Feature",
      "properties": {
        "SUPERD": 18,
        "TAZ1454": 949,
        "Shape__Are": 0.0,
        "Shape__Len": 0.0
      },
      "geometry": {
        "type": "MultiPolygon",
        "coordinates": [
          [
            [
              [
                -122.2248295300722,
                37.759686559750534
              ],
              [
                -122.22517890763139,
                37.7552291814386
              ],
              [
                -122.22557899982334,
                37.75552800080331
              ],
              [
                -122.22597900020006,
                37.7557280003332
              ],
              [
                -122.22577900041631,
                37.75662800046515
              ],
              [
                -122.22667899999945,
                37.75742800031093
              ],
              [
                -122.22987899979269,
                37.75962800043793
              ],
              [
                -122.22957900045525,
                37.75992800064144
              ],
              [
                -122.23037899977699,
                37.76042800086118
              ],
              [
                -122.23107900030955,
                37.76092800028032
              ],
              [
                -122.2335790001435,
                37.762428000675946
              ],
              [
                -122.23397899953781,
                37.762728000921406
              ],
              [
                -122.23487900012374,
                37.763128000603984
              ],
              [
                -122.2358789994002,
                37.763628000959216
              ],
              [
                -122.23717900004314,
                37.76432800079749
              ],
              [
                -122.23847900020263,
                37.76502800073492
              ],
              [
                -122.23907900017855,
                37.7652280007161
              ],
              [
                -122.24077900016458,
                37.766228001084166
              ],
              [
                -122.24017900028731,
                37.76702800046445
              ],
              [
                -122.23947900028251,
                37.7677280003612
              ],
              [
                -122.23877899962228,
                37.768528000305075
              ],
              [
                -122.23807899996402,
                37.76942800025436
              ],
              [
                -122.2373789997185,
                37.77022800053362
              ],
              [
                -122.23677899950579,
                37.7710280006901
              ],
              [
                -122.23677807592175,
                37.77102762039101
              ],
              [
                -122.23677805962711,
                37.771027659181584
              ],
              [
                -122.23677804055171,
                37.77102772098762
              ],
              [
                -122.23023245729841,
                37.76911854105036
              ],
              [
                -122.23021859748515,
                37.76911358192987
              ],
              [
                -122.23020529048948,
                37.76910728818965
              ],
              [
                -122.23019266446505,
                37.769099720441844
              ],
              [
                -122.23018084100738,
                37.769090951568
              ],
              [
                -122.22484884100737,
                37.76474695156801
              ],
              [
                -122.22483793398281,
                37.764737066017176
              ],
              [
                -122.22482804843199,
                37.76472615899262
              ],
              [
                -122.22481927955815,
                37.764714335534954
              ],
              [
                -122.22481171181035,
                37.764701709510526
              ],
              [
                -122.22480541807012,
                37.76468840251486
              ],
              [
                -122.22480045894963,
                37.76467454270159
              ],
              [
                -122.22479688220794,
                37.7646602635483
              ],
              [
                -122.224794722291,
                37.76464570257105
              ],
              [
                -122.22479399999999,
                37.764631
              ],
              [
                -122.22475750887727,
                37.76181106237671
              ],
              [
                -122.22478150844412,
                37.760582
              ],
              [
                -122.22478153007219,
                37.760581559750534
              ],
              [
                -122.2248295300722,
                37.759686559750534
              ]
            ]
          ]
        ]
      }
    }
  ]
}