{"type": "FeatureCollection", "name": "Alameda_TravelAnalysisZone_951", "crs": {"type": "name", "properties": {"name": "urn:ogc:def:crs:OGC:1.3:CRS84"}}, "features": [{"type": "Feature", "properties": {"SUPERD": 18, "TAZ1454": 951, "Shape__Are": 0.0, "Shape__Len": 0.0}, "geometry": {"type": "MultiPolygon", "coordinates": [[[[-122.22637899990137, 37.75412800040643], [-122.22687900048808, 37.75442800075232], [-122.22727899965852, 37.754628000393794], [-122.22867899983636, 37.75332800025994], [-122.22947900006281, 37.75262800088444], [-122.23017900023432, 37.75312800054135], [-122.23097900023002, 37.753528000514535], [-122.23186500030856, 37.7541830009768], [-122.23268599977544, 37.754790000592656], [-122.23327900005404, 37.755228000751934], [-122.23407900028592, 37.75582800049921], [-122.23477900008483, 37.75632800076868], [-122.23557900036067, 37.75692800024128], [-122.23637900044808, 37.757428000573974], [-122.23747900021309, 37.7581280009578], [-122.23767899942797, 37.75832800058082], [-122.23847900028474, 37.75882800109206], [-122.2393790000436, 37.75932800080701], [-122.2400790003898, 37.75972800024965], [-122.24057899980004, 37.76002800026446], [-122.24207900044104, 37.76082800023797], [-122.24287899986811, 37.761328000645854], [-122.24310400032473, 37.76150600025996], [-122.24337899976294, 37.76162800051447], [-122.24417999970863, 37.76212800032373], [-122.24488000009228, 37.76132800026956], [-122.24557999963064, 37.760428000369544], [-122.24628000020765, 37.75952800061558], [-122.24817999995172, 37.75702800109675], [-122.24864200001858, 37.75633500088363], [-122.24933399983242, 37.75529800071905], [-122.25018000039272, 37.754029000565296], [-122.25045300021344, 37.75353300045391], [-122.23794599968798, 37.749478000481616], [-122.23657900049079, 37.749029000776574], [-122.23634645718815, 37.749087136322366], [-122.23634370513298, 37.74907612804873], [-122.23634970951052, 37.749073288189656], [-122.23636233553495, 37.74906572044185], [-122.23637415899262, 37.74905695156801], [-122.23638506601718, 37.74904706601718], [-122.236394951568, 37.749036158992624], [-122.23639629055377, 37.74903435357932], [-122.23640501643983, 37.749032167858644], [-122.2364188762531, 37.749027208738156], [-122.23643218324877, 37.749020914997935], [-122.2364448092732, 37.74901334725013], [-122.23645663273086, 37.74900457837629], [-122.23646753975542, 37.748994692825455], [-122.23647742530625, 37.7489837858009], [-122.23648619418009, 37.748971962343234], [-122.23649376192789, 37.748959336318805], [-122.23650005566812, 37.748946029323136], [-122.2365050147886, 37.74893216950987], [-122.2365085915303, 37.74891789035658], [-122.23651075144724, 37.74890332937933], [-122.23651147373825, 37.74888862680828], [-122.23651075144724, 37.74887392423723], [-122.2365085915303, 37.74885936325998], [-122.2365050147886, 37.74884508410669], [-122.23650005566812, 37.748831224293426], [-122.23649376192789, 37.74881791729776], [-122.23648619418009, 37.74880529127333], [-122.23647742530625, 37.74879346781566], [-122.23646753975542, 37.748782560791106], [-122.23645663273086, 37.748772675240275], [-122.2364448092732, 37.748763906366435], [-122.23643218324877, 37.74875633861863], [-122.2364188762531, 37.748750044878406], [-122.23640501643983, 37.74874508575792], [-122.23639073728654, 37.74874150901622], [-122.23637617630929, 37.74873934909928], [-122.23636147373824, 37.74873862680828], [-122.23634677116719, 37.74873934909928], [-122.23633221018994, 37.74874150901622], [-122.23631793103665, 37.74874508575792], [-122.23630407122339, 37.748750044878406], [-122.23629076422772, 37.74875633861863], [-122.23627813820329, 37.748763906366435], [-122.23626631474562, 37.748772675240275], [-122.23625540772106, 37.748782560791106], [-122.23624552217024, 37.74879346781566], [-122.23624418318447, 37.748795273228964], [-122.2362354572984, 37.74879745894964], [-122.23622159748514, 37.74880241807013], [-122.23620829048947, 37.74880871181035], [-122.23619566446504, 37.748816279558156], [-122.23618384100737, 37.748825048431996], [-122.23617293398281, 37.74883493398283], [-122.23616304843199, 37.74884584100738], [-122.23615427955815, 37.74885766446505], [-122.23614671181035, 37.74887029048948], [-122.23614041807012, 37.74888359748515], [-122.23613545894963, 37.74889745729841], [-122.23613188220794, 37.7489117364517], [-122.236129722291, 37.74892629742895], [-122.23612899999999, 37.748941], [-122.236129722291, 37.74895570257105], [-122.23613188220794, 37.7489702635483], [-122.23613545894963, 37.74898454270159], [-122.23614041807012, 37.74899840251486], [-122.23614671181035, 37.749011709510526], [-122.23615427955815, 37.749024335534955], [-122.23616304843199, 37.749036158992624], [-122.23617293398281, 37.74904706601718], [-122.23618384100737, 37.74905695156801], [-122.23619566446504, 37.74906572044185], [-122.23620829048947, 37.749073288189656], [-122.23622159748514, 37.74907958192988], [-122.2362354572984, 37.749084541050365], [-122.2362497364517, 37.74908811779206], [-122.23626429742895, 37.749090277709], [-122.236279, 37.749091], [-122.23628549674527, 37.74909068083537], [-122.23628824862166, 37.749101688393935], [-122.23617899950636, 37.74912900054128], [-122.23586600028915, 37.749258001124325], [-122.23557900008102, 37.749429001014015], [-122.23427899975584, 37.750029000975104], [-122.23327899985773, 37.7495290002691], [-122.22637899990137, 37.75412800040643]]]]}}]}