{"type": "FeatureCollection", "name": "Alameda_TravelAnalysisZone_948", "crs": {"type": "name", "properties": {"name": "urn:ogc:def:crs:OGC:1.3:CRS84"}}, "features": [{"type": "Feature", "properties": {"SUPERD": 18, "TAZ1454": 948, "Shape__Are": 0.0, "Shape__Len": 0.0}, "geometry": {"type": "MultiPolygon", "coordinates": [[[[-122.24427900037712, 37.77512800036407], [-122.24828000005544, 37.77552800055358], [-122.2505799996353, 37.77662800084822], [-122.25157999950056, 37.77862800055251], [-122.25207999969882, 37.77842800058576], [-122.2525840002327, 37.77775600063342], [-122.25357999992679, 37.776428000780214], [-122.25399999990127, 37.775798000284745], [-122.25418000026927, 37.77552800100315], [-122.25429499992637, 37.775585000932615], [-122.25497999981492, 37.775928000351925], [-122.25548000014207, 37.77512800032921], [-122.25567999977523, 37.77492800056218], [-122.25647999991843, 37.775328000591806], [-122.2574799998275, 37.775728001059214], [-122.25848000032815, 37.77612800027164], [-122.25908000040856, 37.775428001059716], [-122.25958000013055, 37.774528000628436], [-122.25768000023191, 37.773628000754215], [-122.2568800003799, 37.77322800069957], [-122.25598000045366, 37.77282800107615], [-122.25517999965216, 37.772528001081845], [-122.25428000036808, 37.77212800112252], [-122.2531799996549, 37.771628000571965], [-122.2520800001405, 37.771128000595816], [-122.2510799995832, 37.77062800045844], [-122.2507610001154, 37.770485000262624], [-122.24818000009759, 37.76932800030217], [-122.24527999989651, 37.76812800090579], [-122.24357899960513, 37.76732800102709], [-122.24237899974884, 37.76682800058396], [-122.24077900016458, 37.766228001084166], [-122.24017900028731, 37.76702800046445], [-122.23947900028251, 37.7677280003612], [-122.23877899962228, 37.768528000305075], [-122.23807899996402, 37.76942800025436], [-122.2373789997185, 37.77022800053362], [-122.23677899950579, 37.7710280006901], [-122.23685078064855, 37.771062182173], [-122.23662202217655, 37.77154257515618], [-122.2366152635483, 37.77154088220794], [-122.23660070257105, 37.771538722291], [-122.236586, 37.771538], [-122.23657129742895, 37.771538722291], [-122.2365567364517, 37.77154088220794], [-122.23654245729841, 37.771544458949634], [-122.23652859748515, 37.77154941807012], [-122.23651529048948, 37.77155571181034], [-122.23650266446505, 37.77156327955815], [-122.23649084100738, 37.77157204843199], [-122.23647993398282, 37.77158193398282], [-122.236470048432, 37.771592841007376], [-122.23646127955816, 37.771604664465045], [-122.23645371181036, 37.77161729048947], [-122.23644741807013, 37.77163059748514], [-122.23644245894964, 37.77164445729841], [-122.23643888220795, 37.7716587364517], [-122.236436722291, 37.77167329742895], [-122.236436, 37.771688], [-122.236436722291, 37.77170270257105], [-122.23643888220795, 37.7717172635483], [-122.23644245894964, 37.77173154270159], [-122.23644741807013, 37.77174540251485], [-122.23645371181036, 37.77175870951052], [-122.23646127955816, 37.77177133553495], [-122.236470048432, 37.77178315899262], [-122.23647993398282, 37.77179406601717], [-122.23649084100738, 37.771803951568], [-122.23650266446505, 37.771812720441844], [-122.23651529048948, 37.77182028818965], [-122.23652859748515, 37.77182658192987], [-122.23654245729841, 37.77183154105036], [-122.2365567364517, 37.77183511779206], [-122.23657129742895, 37.771837277709], [-122.236586, 37.771837999999995], [-122.23660070257105, 37.771837277709], [-122.2366152635483, 37.77183511779206], [-122.23662954270159, 37.77183154105036], [-122.23664340251486, 37.77182658192987], [-122.23665670951053, 37.77182028818965], [-122.23666933553496, 37.771812720441844], [-122.23668115899262, 37.771803951568], [-122.23669206601718, 37.77179406601717], [-122.23670195156801, 37.77178315899262], [-122.23671072044185, 37.77177133553495], [-122.23671828818965, 37.77175870951052], [-122.23672458192988, 37.77174540251485], [-122.23672954105037, 37.77173154270159], [-122.23673311779206, 37.7717172635483], [-122.236735277709, 37.77170270257105], [-122.23673600000001, 37.771688], [-122.236735277709, 37.77167329742895], [-122.23673311779206, 37.7716587364517], [-122.23672954105037, 37.77164445729841], [-122.23672458192988, 37.77163059748514], [-122.23671828818965, 37.77161729048947], [-122.23671072044185, 37.771604664465045], [-122.23670195156801, 37.771592841007376], [-122.23669206601718, 37.77158193398282], [-122.23668115899262, 37.77157204843199], [-122.23667619562745, 37.771568367349495], [-122.23690495228368, 37.77108797817942], [-122.23690495228368, 37.771087978179416], [-122.23887900036102, 37.77202800069772], [-122.24427900037712, 37.77512800036407]]], [[[-122.25287999962394, 37.78582800071035], [-122.24938000030996, 37.784328000834705], [-122.24607999995193, 37.78132800062566], [-122.24597999994945, 37.77892800087462], [-122.24778000040165, 37.77912800112059], [-122.25467999964704, 37.78532800040493], [-122.25287999962394, 37.78582800071035]]]]}}]}