{
  "type": "FeatureCollection",
  "name": "Alameda_TravelAnalysisZone_950",
  "crs": {
    "type": "name",
    "properties": {
      "name": "urn:ogc:def:crs:OGC:1.3:CRS84"
    }
  },
  "features": [
    {
      "type": "Feature",
      "properties": {
        "SUPERD": 18,
        "TAZ1454": 950,
        "Shape__Are": 0.0,
        "Shape__Len": 0.0
      },
      "geometry": {
        "type": "MultiPolygon",
        "coordinates": [
          [
            [
              [
                -122.22637899990137,
                37.75412800040643
              ],
              [
                -122.22687900048808,
                37.75442800075232
              ],
              [
                -122.22727899965852,
                37.754628000393794
              ],
              [
                -122.22867899983636,
                37.75332800025994
              ],
              [
                -122.22947900006281,
                37.75262800088444
              ],
              [
                -122.23017900023432,
                37.75312800054135
              ],
              [
                -122.23097900023002,
                37.753528000514535
              ],
              [
                -122.23186500030856,
                37.7541830009768
              ],
              [
                -122.23268599977544,
                37.754790000592656
              ],
              [
                -122.23327900005404,
                37.755228000751934
              ],
              [
                -122.23407900028592,
                37.75582800049921
              ],
              [
                -122.23477900008483,
                37.75632800076868
              ],
              [
                -122.23557900036067,
                37.75692800024128
              ],
              [
                -122.23637900044808,
                37.757428000573974
              ],
              [
                -122.23747900021309,
                37.7581280009578
              ],
              [
                -122.23767899942797,
                37.75832800058082
              ],
              [
                -122.23847900028474,
                37.75882800109206
              ],
              [
                -122.2393790000436,
                37.75932800080701
              ],
              [
                -122.2400790003898,
                37.75972800024965
              ],
              [
                -122.24057899980004,
                37.76002800026446
              ],
              [
                -122.24207900044104,
                37.76082800023797
              ],
              [
                -122.24287899986811,
                37.761328000645854
              ],
              [
                -122.24310400032473,
                37.76150600025996
              ],
              [
                -122.24337899976294,
                37.76162800051447
              ],
              [
                -122.24417999970863,
                37.76212800032373
              ],
              [
                -122.24369000023451,
                37.76268700067442
              ],
              [
                -122.24347899980339,
                37.7629280004462
              ],
              [
                -122.24277899961622,
                37.76382800079192
              ],
              [
                -122.24247900039715,
                37.76422800037199
              ],
              [
                -122.24187900024658,
                37.7649280007931
              ],
              [
                -122.24127900004933,
                37.76562800073151
              ],
              [
                -122.24077900016458,
                37.766228001084166
              ],
              [
                -122.23907900017855,
                37.7652280007161
              ],
              [
                -122.23847900020263,
                37.76502800073492
              ],
              [
                -122.23717900004314,
                37.76432800079749
              ],
              [
                -122.2358789994002,
                37.763628000959216
              ],
              [
                -122.23487900012374,
                37.763128000603984
              ],
              [
                -122.23397899953781,
                37.762728000921406
              ],
              [
                -122.2335790001435,
                37.762428000675946
              ],
              [
                -122.23107900030955,
                37.76092800028032
              ],
              [
                -122.23037899977699,
                37.76042800086118
              ],
              [
                -122.22957900045525,
                37.75992800064144
              ],
              [
                -122.22987899979269,
                37.75962800043793
              ],
              [
                -122.22667899999945,
                37.75742800031093
              ],
              [
                -122.22577900041631,
                37.75662800046515
              ],
              [
                -122.22597900020006,
                37.7557280003332
              ],
              [
                -122.22557899982334,
                37.75552800080331
              ],
              [
                -122.22517900016878,
                37.75522800084137
              ],
              [
                -122.22637899990137,
                37.75412800040643
              ]
            ]
          ]
        ]
      }
    }
  ]
}