{
  "type": "FeatureCollection",
  "name": "Alameda_TravelAnalysisZone_955",
  "crs": {
    "type": "name",
    "properties": {
      "name": "urn:ogc:def:crs:OGC:1.3:CRS84"
    }
  },
  "features": [
    {
      "type": "Feature",
      "properties": {
        "SUPERD": 18,
        "TAZ1454": 955,
        "Shape__Are": 0.0,
        "Shape__Len": 0.0
      },
      "geometry": {
        "type": "MultiPolygon",
        "coordinates": [
          [
            [
              [
                -122.24277899961622,
                37.76382800079192
              ],
              [
                -122.24347899980339,
                37.7629280004462
              ],
              [
                -122.24369000023451,
                37.76268700067442
              ],
              [
                -122.24417999970863,
                37.76212800032373
              ],
              [
                -122.24527999941434,
                37.76262800100317
              ],
              [
                -122.24817999976995,
                37.76382800058026
              ],
              [
                -122.25098000009855,
                37.7651280008694
              ],
              [
                -122.25418000048832,
                37.76652800103797
              ],
              [
                -122.25338000039277,
                37.767428000909355
              ],
              [
                -122.25277999960045,
                37.76832800077008
              ],
              [
                -122.25197999977395,
                37.76942800043618
              ],
              [
                -122.2510799995832,
                37.77062800045844
              ],
              [
                -122.2507610001154,
                37.770485000262624
              ],
              [
                -122.24818000009759,
                37.76932800030217
              ],
              [
                -122.24527999989651,
                37.76812800090579
              ],
              [
                -122.24357899960513,
                37.76732800102709
              ],
              [
                -122.24237899974884,
                37.76682800058396
              ],
              [
                -122.24077900016458,
                37.766228001084166
              ],
              [
                -122.24127900004933,
                37.76562800073151
              ],
              [
                -122.24187900024658,
                37.7649280007931
              ],
              [
                -122.24247900039715,
                37.76422800037199
              ],
              [
                -122.24277899961622,
                37.76382800079192
              ]
            ]
          ]
        ]
      }
    }
  ]
}