{
  "type": "FeatureCollection",
  "name": "Alameda_TravelAnalysisZone_956",
  "crs": {
    "type": "name",
    "properties": {
      "name": "urn:ogc:def:crs:OGC:1.3:CRS84"
    }
  },
  "features": [
    {
      "type": "Feature",
      "properties": {
        "SUPERD": 18,
        "TAZ1454": 956,
        "Shape__Are": 0.0,
        "Shape__Len": 0.0
      },
      "geometry": {
        "type": "MultiPolygon",
        "coordinates": [
          [
            [
              [
                -122.2531799996549,
                37.771628000571965
              ],
              [
                -122.2520800001405,
                37.771128000595816
              ],
              [
                -122.2510799995832,
                37.77062800045844
              ],
              [
                -122.25197999977395,
                37.76942800043618
              ],
              [
                -122.25277999960045,
                37.76832800077008
              ],
              [
                -122.25338000039277,
                37.767428000909355
              ],
              [
                -122.25418000048832,
                37.76652800103797
              ],
              [
                -122.25478000028576,
                37.7657280008292
              ],
              [
                -122.25537999951428,
                37.76492800100458
              ],
              [
                -122.25598000045379,
                37.76412800067729
              ],
              [
                -122.25697999994664,
                37.764528000977606
              ],
              [
                -122.25897999953669,
                37.76532800051256
              ],
              [
                -122.26068000007422,
                37.766128000585454
              ],
              [
                -122.26228000006984,
                37.76672800091693
              ],
              [
                -122.26418000045572,
                37.767328001031764
              ],
              [
                -122.2640800001832,
                37.769428000965675
              ],
              [
                -122.26401200010314,
                37.77072700073744
              ],
              [
                -122.26398000016276,
                37.77132800107875
              ],
              [
                -122.2639800001708,
                37.773128000633335
              ],
              [
                -122.26388000011359,
                37.77502800035459
              ],
              [
                -122.26258000021132,
                37.77502800071832
              ],
              [
                -122.26148000002492,
                37.774928000355
              ],
              [
                -122.26047999980167,
                37.7747280010218
              ],
              [
                -122.25958000013055,
                37.774528000628436
              ],
              [
                -122.25768000023191,
                37.773628000754215
              ],
              [
                -122.2568800003799,
                37.77322800069957
              ],
              [
                -122.25598000045366,
                37.77282800107615
              ],
              [
                -122.25517999965216,
                37.772528001081845
              ],
              [
                -122.25428000036808,
                37.77212800112252
              ],
              [
                -122.2531799996549,
                37.771628000571965
              ]
            ]
          ]
        ]
      }
    }
  ]
}