{
"type": "FeatureCollection",
"name": "Alameda_Contra_Costa_outside_island",
"crs": { "type": "name", "properties": { "name": "urn:ogc:def:crs:OGC:1.3:CRS84" } },
"features": [
{ "type": "Feature", "properties": { }, "geometry": { "type": "MultiPolygon", "coordinates": [ [ [ [ -122.341561, 37.802707 ], [ -122.345401, 37.808947 ], [ -122.346681, 37.811027 ], [ -122.346881, 37.811427 ], [ -122.347181, 37.812247 ], [ -122.348546, 37.815967 ], [ -122.349001, 37.817208 ], [ -122.349024, 37.81727 ], [ -122.34905, 37.81734 ], [ -122.349067, 37.817386 ], [ -122.349194, 37.817728 ], [ -122.349387, 37.818248 ], [ -122.349607, 37.818841 ], [ -122.349755, 37.81924 ], [ -122.350376, 37.820911 ], [ -122.352634, 37.826988 ], [ -122.354504, 37.832023 ], [ -122.355881, 37.835727 ], [ -122.35826, 37.841926 ], [ -122.3654, 37.860526 ], [ -122.367781, 37.866726 ], [ -122.36898, 37.870125 ], [ -122.369228, 37.870826 ], [ -122.370676, 37.874927 ], [ -122.372229, 37.879326 ], [ -122.372581, 37.880325 ], [ -122.373782, 37.883725 ], [ -122.373982, 37.883884 ], [ -122.374582, 37.884364 ], [ -122.374782, 37.884525 ], [ -122.38174, 37.889955 ], [ -122.399382, 37.903725 ], [ -122.402593, 37.906274 ], [ -122.409507, 37.911763 ], [ -122.412142, 37.913855 ], [ -122.420047, 37.920131 ], [ -122.422683, 37.922224 ], [ -122.424602, 37.923744 ], [ -122.426444, 37.925202 ], [ -122.430205, 37.928179 ], [ -122.430362, 37.928304 ], [ -122.432216, 37.929771 ], [ -122.432283, 37.929824 ], [ -122.43261, 37.93074 ], [ -122.433592, 37.933489 ], [ -122.433783, 37.934024 ], [ -122.433883, 37.934224 ], [ -122.433965, 37.934387 ], [ -122.433983, 37.934425 ], [ -122.433998, 37.93446 ], [ -122.434169, 37.934873 ], [ -122.434779, 37.936336 ], [ -122.434983, 37.936824 ], [ -122.436183, 37.940943 ], [ -122.439783, 37.953303 ], [ -122.440984, 37.957423 ], [ -122.441083, 37.958062 ], [ -122.441383, 37.959983 ], [ -122.441484, 37.960623 ], [ -122.441484, 37.961798 ], [ -122.441484, 37.965325 ], [ -122.441484, 37.966501 ], [ -122.441484, 37.966805 ], [ -122.441484, 37.967718 ], [ -122.441484, 37.968023 ], [ -122.441504, 37.968583 ], [ -122.441564, 37.970263 ], [ -122.441584, 37.970823 ], [ -122.441584, 37.97239 ], [ -122.441584, 37.973923 ], [ -122.43945, 37.976268 ], [ -122.438396, 37.977428 ], [ -122.434927, 37.981241 ], [ -122.424521, 37.992681 ], [ -122.422484, 37.994922 ], [ -122.421083, 37.996522 ], [ -122.417938, 37.999922 ], [ -122.417123, 38.000802 ], [ -122.413683, 38.004522 ], [ -122.405226, 38.013625 ], [ -122.401258, 38.017898 ], [ -122.399562, 38.019722 ], [ -122.394477, 38.025196 ], [ -122.392783, 38.027021 ], [ -122.391376, 38.028816 ], [ -122.390776, 38.029581 ], [ -122.384757, 38.037263 ], [ -122.382751, 38.039824 ], [ -122.381396, 38.041552 ], [ -122.377334, 38.046737 ], [ -122.376658, 38.0476 ], [ -122.37598, 38.048466 ], [ -122.374475, 38.049774 ], [ -122.369959, 38.053698 ], [ -122.368455, 38.055006 ], [ -122.364254, 38.058656 ], [ -122.351654, 38.069608 ], [ -122.347454, 38.07326 ], [ -122.333639, 38.070892 ], [ -122.317835, 38.068183 ], [ -122.292195, 38.063788 ], [ -122.278381, 38.06142 ], [ -122.277901, 38.061364 ], [ -122.276881, 38.061247 ], [ -122.276462, 38.061199 ], [ -122.275983, 38.061144 ], [ -122.274382, 38.060959 ], [ -122.269578, 38.060404 ], [ -122.267978, 38.060221 ], [ -122.265347, 38.059918 ], [ -122.264828, 38.060024 ], [ -122.264721, 38.060047 ], [ -122.263451, 38.060302 ], [ -122.257779, 38.061443 ], [ -122.249975, 38.063016 ], [ -122.246909, 38.063634 ], [ -122.245483, 38.063922 ], [ -122.245251, 38.063969 ], [ -122.244106, 38.063795 ], [ -122.242797, 38.063595 ], [ -122.234733, 38.06237 ], [ -122.232952, 38.0621 ], [ -122.232079, 38.06182 ], [ -122.231457, 38.061743 ], [ -122.230451, 38.061619 ], [ -122.230114, 38.061573 ], [ -122.229599, 38.06148 ], [ -122.229267, 38.061421 ], [ -122.228983, 38.061372 ], [ -122.22896, 38.061368 ], [ -122.228426, 38.061278 ], [ -122.227991, 38.061206 ], [ -122.226745, 38.061109 ], [ -122.226714, 38.061107 ], [ -122.22649, 38.061082 ], [ -122.226413, 38.061073 ], [ -122.226185, 38.061048 ], [ -122.226125, 38.061041 ], [ -122.225945, 38.06102 ], [ -122.225931, 38.061019 ], [ -122.225885, 38.061018 ], [ -122.225855, 38.061018 ], [ -122.225743, 38.061017 ], [ -122.225318, 38.061014 ], [ -122.225236, 38.061014 ], [ -122.225193, 38.061008 ], [ -122.225178, 38.061006 ], [ -122.225063, 38.060992 ], [ -122.224719, 38.06095 ], [ -122.224605, 38.060936 ], [ -122.224564, 38.060931 ], [ -122.222423, 38.060667 ], [ -122.21588, 38.05986 ], [ -122.2137, 38.059591 ], [ -122.212447, 38.059436 ], [ -122.210568, 38.059204 ], [ -122.208688, 38.058972 ], [ -122.207435, 38.058818 ], [ -122.206303, 38.058678 ], [ -122.205972, 38.058637 ], [ -122.204607, 38.058469 ], [ -122.202909, 38.058259 ], [ -122.201778, 38.05812 ], [ -122.200846, 38.057934 ], [ -122.200715, 38.057903 ], [ -122.200677, 38.057894 ], [ -122.198679, 38.05743 ], [ -122.197547, 38.057169 ], [ -122.197123, 38.057072 ], [ -122.196492, 38.056925 ], [ -122.19636, 38.056894 ], [ -122.195964, 38.056801 ], [ -122.195832, 38.056771 ], [ -122.195743, 38.05675 ], [ -122.195476, 38.056688 ], [ -122.195388, 38.056668 ], [ -122.195271, 38.056641 ], [ -122.194921, 38.05656 ], [ -122.194805, 38.056533 ], [ -122.190331, 38.055496 ], [ -122.183863, 38.053997 ], [ -122.178289, 38.049542 ], [ -122.177214, 38.048682 ], [ -122.176188, 38.047863 ], [ -122.176096, 38.047772 ], [ -122.175089, 38.046627 ], [ -122.174939, 38.046431 ], [ -122.174708, 38.046131 ], [ -122.173854, 38.045002 ], [ -122.170785, 38.040943 ], [ -122.170609, 38.040711 ], [ -122.169717, 38.039532 ], [ -122.169656, 38.039448 ], [ -122.169536, 38.039275 ], [ -122.169168, 38.038745 ], [ -122.168649, 38.037998 ], [ -122.167989, 38.037215 ], [ -122.16784, 38.037038 ], [ -122.167577, 38.036721 ], [ -122.167383, 38.036634 ], [ -122.167194, 38.03646 ], [ -122.166742, 38.036046 ], [ -122.166075, 38.035615 ], [ -122.165857, 38.035474 ], [ -122.165662, 38.035399 ], [ -122.165201, 38.035222 ], [ -122.164591, 38.034732 ], [ -122.164577, 38.034721 ], [ -122.163202, 38.034299 ], [ -122.162195, 38.03404 ], [ -122.160888, 38.03378 ], [ -122.160653, 38.033734 ], [ -122.16044, 38.033635 ], [ -122.159997, 38.033445 ], [ -122.159681, 38.033399 ], [ -122.15925, 38.033338 ], [ -122.159117, 38.033299 ], [ -122.158929, 38.033246 ], [ -122.157998, 38.033109 ], [ -122.157419, 38.033026 ], [ -122.156852, 38.032946 ], [ -122.156812, 38.03294 ], [ -122.156691, 38.032922 ], [ -122.156652, 38.032917 ], [ -122.155969, 38.032819 ], [ -122.15575, 38.032782 ], [ -122.153512, 38.032407 ], [ -122.153052, 38.032353 ], [ -122.152147, 38.032249 ], [ -122.151864, 38.032216 ], [ -122.151433, 38.032138 ], [ -122.150247, 38.031926 ], [ -122.149293, 38.031808 ], [ -122.148577, 38.031721 ], [ -122.148277, 38.031721 ], [ -122.147376, 38.031721 ], [ -122.147077, 38.031721 ], [ -122.146866, 38.031727 ], [ -122.145181, 38.031775 ], [ -122.14362, 38.031764 ], [ -122.14312, 38.031761 ], [ -122.141533, 38.031862 ], [ -122.139366, 38.032177 ], [ -122.137138, 38.032841 ], [ -122.136088, 38.033215 ], [ -122.134393, 38.03372 ], [ -122.133543, 38.033963 ], [ -122.133173, 38.034069 ], [ -122.131536, 38.034492 ], [ -122.130287, 38.034712 ], [ -122.130174, 38.034718 ], [ -122.128185, 38.035061 ], [ -122.127828, 38.035123 ], [ -122.127068, 38.035183 ], [ -122.12568, 38.035399 ], [ -122.123973, 38.035717 ], [ -122.123876, 38.035764 ], [ -122.123724, 38.035835 ], [ -122.123593, 38.035892 ], [ -122.123161, 38.036082 ], [ -122.122537, 38.036524 ], [ -122.122452, 38.036625 ], [ -122.12211, 38.037035 ], [ -122.121974, 38.037221 ], [ -122.121743, 38.037471 ], [ -122.121529, 38.037609 ], [ -122.121131, 38.037891 ], [ -122.120992, 38.03799 ], [ -122.120976, 38.037994 ], [ -122.120927, 38.038008 ], [ -122.120912, 38.038013 ], [ -122.120887, 38.03802 ], [ -122.120808, 38.038039 ], [ -122.120641, 38.03808 ], [ -122.120498, 38.038114 ], [ -122.120395, 38.03814 ], [ -122.120095, 38.038221 ], [ -122.119253, 38.038562 ], [ -122.118849, 38.03883 ], [ -122.118083, 38.03934 ], [ -122.117957, 38.039389 ], [ -122.115835, 38.040294 ], [ -122.102757, 38.045876 ], [ -122.102589, 38.045931 ], [ -122.101834, 38.046206 ], [ -122.100551, 38.046676 ], [ -122.099776, 38.047008 ], [ -122.099684, 38.047049 ], [ -122.098726, 38.04746 ], [ -122.097075, 38.04792 ], [ -122.096806, 38.048006 ], [ -122.096001, 38.048268 ], [ -122.095733, 38.048355 ], [ -122.095261, 38.048507 ], [ -122.093846, 38.048967 ], [ -122.093375, 38.04912 ], [ -122.093125, 38.049268 ], [ -122.092744, 38.049352 ], [ -122.090318, 38.049718 ], [ -122.088746, 38.050092 ], [ -122.087235, 38.050634 ], [ -122.085746, 38.051197 ], [ -122.084592, 38.051679 ], [ -122.084159, 38.051861 ], [ -122.082511, 38.052357 ], [ -122.080985, 38.05283 ], [ -122.079826, 38.053173 ], [ -122.07743, 38.054005 ], [ -122.076728, 38.054318 ], [ -122.076545, 38.054409 ], [ -122.076148, 38.054615 ], [ -122.075263, 38.055156 ], [ -122.067298, 38.060077 ], [ -122.066596, 38.060359 ], [ -122.065009, 38.060985 ], [ -122.063651, 38.061404 ], [ -122.062507, 38.061709 ], [ -122.061256, 38.062099 ], [ -122.061103, 38.062137 ], [ -122.059431, 38.06182 ], [ -122.056873, 38.061336 ], [ -122.050874, 38.060201 ], [ -122.050386, 38.060198 ], [ -122.050339, 38.060204 ], [ -122.04594, 38.060204 ], [ -122.03626, 38.060204 ], [ -122.032773, 38.059753 ], [ -122.029234, 38.059296 ], [ -122.028411, 38.05919 ], [ -122.024975, 38.06029 ], [ -122.019826, 38.062271 ], [ -122.015175, 38.063481 ], [ -122.012905, 38.063797 ], [ -122.007915, 38.064493 ], [ -122.005681, 38.064759 ], [ -122.001073, 38.065309 ], [ -122.000603, 38.065365 ], [ -121.996709, 38.065766 ], [ -121.991352, 38.06632 ], [ -121.987567, 38.066809 ], [ -121.987327, 38.06684 ], [ -121.986671, 38.066925 ], [ -121.983158, 38.067297 ], [ -121.97744, 38.06684 ], [ -121.972281, 38.065538 ], [ -121.969562, 38.064411 ], [ -121.965209, 38.062608 ], [ -121.962208, 38.061365 ], [ -121.957202, 38.058643 ], [ -121.955679, 38.057816 ], [ -121.950919, 38.054978 ], [ -121.950917, 38.054766 ], [ -121.950912, 38.05413 ], [ -121.950911, 38.053918 ], [ -121.950549, 38.053851 ], [ -121.949895, 38.053678 ], [ -121.948642, 38.053348 ], [ -121.946859, 38.052905 ], [ -121.946765, 38.052882 ], [ -121.945857, 38.052613 ], [ -121.945193, 38.052417 ], [ -121.943835, 38.051967 ], [ -121.943771, 38.051943 ], [ -121.942325, 38.051402 ], [ -121.940936, 38.050914 ], [ -121.939578, 38.050441 ], [ -121.938678, 38.050189 ], [ -121.937762, 38.04983 ], [ -121.93758, 38.049746 ], [ -121.936343, 38.049174 ], [ -121.935579, 38.048856 ], [ -121.935428, 38.048793 ], [ -121.935032, 38.048696 ], [ -121.934299, 38.048518 ], [ -121.933371, 38.048288 ], [ -121.932818, 38.048152 ], [ -121.932803, 38.048147 ], [ -121.932758, 38.048134 ], [ -121.932743, 38.04813 ], [ -121.931896, 38.047876 ], [ -121.931003, 38.04761 ], [ -121.929538, 38.047267 ], [ -121.929327, 38.047225 ], [ -121.92846, 38.047054 ], [ -121.928097, 38.046983 ], [ -121.928027, 38.046969 ], [ -121.925814, 38.046474 ], [ -121.924528, 38.046283 ], [ -121.924425, 38.046268 ], [ -121.923326, 38.046123 ], [ -121.922121, 38.045901 ], [ -121.920794, 38.045726 ], [ -121.918901, 38.045582 ], [ -121.91733, 38.045429 ], [ -121.915544, 38.045216 ], [ -121.913622, 38.045124 ], [ -121.912574, 38.045076 ], [ -121.911943, 38.045048 ], [ -121.911609, 38.04503 ], [ -121.910143, 38.044956 ], [ -121.90857, 38.04502 ], [ -121.907785, 38.045012 ], [ -121.906801, 38.045002 ], [ -121.905446, 38.045204 ], [ -121.90467, 38.04532 ], [ -121.903154, 38.04533 ], [ -121.901171, 38.045361 ], [ -121.898882, 38.045574 ], [ -121.896242, 38.045849 ], [ -121.893327, 38.046185 ], [ -121.891801, 38.046414 ], [ -121.890712, 38.046532 ], [ -121.889573, 38.046657 ], [ -121.887258, 38.047114 ], [ -121.886694, 38.047224 ], [ -121.886674, 38.047229 ], [ -121.885177, 38.047591 ], [ -121.88502, 38.047629 ], [ -121.884463, 38.047765 ], [ -121.883563, 38.047984 ], [ -121.88276, 38.048156 ], [ -121.880184, 38.048709 ], [ -121.878235, 38.049318 ], [ -121.877708, 38.049514 ], [ -121.876072, 38.050125 ], [ -121.875048, 38.050554 ], [ -121.874743, 38.050676 ], [ -121.874606, 38.050758 ], [ -121.87459, 38.050768 ], [ -121.872708, 38.051844 ], [ -121.871101, 38.053027 ], [ -121.870648, 38.05344 ], [ -121.869582, 38.054414 ], [ -121.869469, 38.054519 ], [ -121.869401, 38.054599 ], [ -121.868546, 38.055545 ], [ -121.867669, 38.056578 ], [ -121.867402, 38.056895 ], [ -121.866364, 38.058314 ], [ -121.865189, 38.059909 ], [ -121.864472, 38.060985 ], [ -121.863648, 38.062381 ], [ -121.863147, 38.063403 ], [ -121.863114, 38.063472 ], [ -121.862641, 38.064929 ], [ -121.862534, 38.065677 ], [ -121.862534, 38.065898 ], [ -121.862462, 38.06603 ], [ -121.862443, 38.066066 ], [ -121.862138, 38.066066 ], [ -121.854524, 38.065089 ], [ -121.853852, 38.064853 ], [ -121.853639, 38.064776 ], [ -121.851027, 38.062935 ], [ -121.846802, 38.059955 ], [ -121.84204, 38.052565 ], [ -121.841659, 38.051974 ], [ -121.841064, 38.048335 ], [ -121.840851, 38.047024 ], [ -121.840561, 38.045269 ], [ -121.839584, 38.042919 ], [ -121.838974, 38.041454 ], [ -121.838409, 38.040089 ], [ -121.837936, 38.038944 ], [ -121.837311, 38.038242 ], [ -121.837204, 38.03809 ], [ -121.837006, 38.037891 ], [ -121.836563, 38.037403 ], [ -121.834198, 38.034733 ], [ -121.832122, 38.031101 ], [ -121.831786, 38.030842 ], [ -121.831618, 38.030666 ], [ -121.830581, 38.029904 ], [ -121.830317, 38.029723 ], [ -121.830214, 38.029652 ], [ -121.828719, 38.028515 ], [ -121.828367, 38.02822 ], [ -121.828067, 38.02802 ], [ -121.827667, 38.02792 ], [ -121.827559, 38.027798 ], [ -121.826842, 38.027386 ], [ -121.825867, 38.02682 ], [ -121.825685, 38.026747 ], [ -121.825367, 38.02662 ], [ -121.824902, 38.026281 ], [ -121.823867, 38.025692 ], [ -121.823494, 38.025518 ], [ -121.823067, 38.02532 ], [ -121.822671, 38.025322 ], [ -121.822271, 38.025022 ], [ -121.821246, 38.024429 ], [ -121.820178, 38.023659 ], [ -121.819748, 38.023376 ], [ -121.819156, 38.022987 ], [ -121.819018, 38.022875 ], [ -121.818175, 38.02219 ], [ -121.816954, 38.021519 ], [ -121.815907, 38.021126 ], [ -121.815673, 38.021038 ], [ -121.814513, 38.020756 ], [ -121.813308, 38.020535 ], [ -121.811904, 38.020359 ], [ -121.810653, 38.02029 ], [ -121.80931, 38.020321 ], [ -121.808796, 38.020397 ], [ -121.808333, 38.020466 ], [ -121.806807, 38.020764 ], [ -121.805037, 38.021053 ], [ -121.804867, 38.02112 ], [ -121.803373, 38.02132 ], [ -121.802446, 38.021368 ], [ -121.801466, 38.02142 ], [ -121.80127, 38.021622 ], [ -121.801066, 38.02142 ], [ -121.800001, 38.02129 ], [ -121.798018, 38.020863 ], [ -121.796567, 38.02012 ], [ -121.796264, 38.020046 ], [ -121.794862, 38.019462 ], [ -121.793442, 38.019116 ], [ -121.791916, 38.018887 ], [ -121.791169, 38.01872 ], [ -121.790769, 38.01862 ], [ -121.790469, 38.01862 ], [ -121.789613, 38.018467 ], [ -121.788773, 38.018421 ], [ -121.787431, 38.018475 ], [ -121.78644, 38.018643 ], [ -121.785433, 38.018604 ], [ -121.784273, 38.018536 ], [ -121.783144, 38.018536 ], [ -121.78139, 38.018612 ], [ -121.77991, 38.018826 ], [ -121.778842, 38.018948 ], [ -121.778272, 38.01902 ], [ -121.777485, 38.018917 ], [ -121.775837, 38.019382 ], [ -121.774525, 38.019777 ], [ -121.772985, 38.020365 ], [ -121.771901, 38.020693 ], [ -121.770619, 38.021112 ], [ -121.76949, 38.02157 ], [ -121.767934, 38.022165 ], [ -121.76647, 38.022776 ], [ -121.765127, 38.023195 ], [ -121.764374, 38.023342 ], [ -121.764347, 38.023348 ], [ -121.763474, 38.023518 ], [ -121.761985, 38.023752 ], [ -121.760001, 38.023927 ], [ -121.758251, 38.024129 ], [ -121.75598, 38.024119 ], [ -121.755803, 38.024129 ], [ -121.754913, 38.024188 ], [ -121.753883, 38.024203 ], [ -121.751866, 38.024319 ], [ -121.75168, 38.024308 ], [ -121.751621, 38.024305 ], [ -121.750715, 38.024234 ], [ -121.749084, 38.024348 ], [ -121.748908, 38.024362 ], [ -121.746664, 38.024698 ], [ -121.744481, 38.025087 ], [ -121.741935, 38.025636 ], [ -121.741101, 38.025819 ], [ -121.739504, 38.026164 ], [ -121.737824, 38.02663 ], [ -121.736268, 38.027319 ], [ -121.734704, 38.02792 ], [ -121.73364, 38.028477 ], [ -121.732865, 38.02892 ], [ -121.732565, 38.02902 ], [ -121.732365, 38.02912 ], [ -121.731965, 38.02942 ], [ -121.731717, 38.029514 ], [ -121.729428, 38.031147 ], [ -121.728543, 38.03175 ], [ -121.728079, 38.032049 ], [ -121.727429, 38.032467 ], [ -121.726651, 38.033047 ], [ -121.726014, 38.033579 ], [ -121.725966, 38.03362 ], [ -121.725925, 38.03364 ], [ -121.725765, 38.03372 ], [ -121.725565, 38.03382 ], [ -121.716865, 38.03772 ], [ -121.716565, 38.03782 ], [ -121.715298, 38.038143 ], [ -121.713864, 38.038502 ], [ -121.71246, 38.038891 ], [ -121.710934, 38.03941 ], [ -121.709561, 38.039944 ], [ -121.708131, 38.040593 ], [ -121.707562, 38.040852 ], [ -121.706845, 38.041203 ], [ -121.706565, 38.04132 ], [ -121.705965, 38.04172 ], [ -121.70564, 38.041866 ], [ -121.704343, 38.042484 ], [ -121.702771, 38.043484 ], [ -121.70094, 38.044483 ], [ -121.700665, 38.04472 ], [ -121.699765, 38.04522 ], [ -121.698765, 38.04632 ], [ -121.698117, 38.046986 ], [ -121.697965, 38.04712 ], [ -121.697171, 38.047855 ], [ -121.696042, 38.049122 ], [ -121.694623, 38.050411 ], [ -121.693341, 38.051746 ], [ -121.692013, 38.053196 ], [ -121.691665, 38.05352 ], [ -121.686265, 38.05732 ], [ -121.685361, 38.057903 ], [ -121.685265, 38.05802 ], [ -121.684399, 38.058521 ], [ -121.683765, 38.059019 ], [ -121.683565, 38.059219 ], [ -121.683365, 38.059419 ], [ -121.683065, 38.059619 ], [ -121.682919, 38.059794 ], [ -121.682854, 38.059857 ], [ -121.682034, 38.060664 ], [ -121.68147, 38.061244 ], [ -121.680859, 38.062129 ], [ -121.680569, 38.062808 ], [ -121.680264, 38.063525 ], [ -121.67999, 38.06457 ], [ -121.679965, 38.064719 ], [ -121.679765, 38.065119 ], [ -121.679765, 38.065619 ], [ -121.679776, 38.065776 ], [ -121.679654, 38.066997 ], [ -121.679593, 38.068111 ], [ -121.679623, 38.069469 ], [ -121.6797, 38.070575 ], [ -121.679822, 38.071857 ], [ -121.679898, 38.072787 ], [ -121.679929, 38.074184 ], [ -121.680035, 38.075412 ], [ -121.680249, 38.076648 ], [ -121.680661, 38.077823 ], [ -121.681058, 38.0787 ], [ -121.681393, 38.07989 ], [ -121.681665, 38.080619 ], [ -121.681765, 38.081319 ], [ -121.681865, 38.082019 ], [ -121.681062, 38.084273 ], [ -121.680993, 38.084467 ], [ -121.680924, 38.084661 ], [ -121.680235, 38.086595 ], [ -121.679546, 38.088529 ], [ -121.679265, 38.089319 ], [ -121.678475, 38.089854 ], [ -121.673065, 38.093518 ], [ -121.662465, 38.095618 ], [ -121.661865, 38.095618 ], [ -121.652064, 38.091619 ], [ -121.649364, 38.090319 ], [ -121.648983, 38.090144 ], [ -121.648754, 38.090037 ], [ -121.648433, 38.089595 ], [ -121.648143, 38.089259 ], [ -121.646984, 38.088328 ], [ -121.645183, 38.087413 ], [ -121.642849, 38.086848 ], [ -121.640514, 38.086391 ], [ -121.638088, 38.086131 ], [ -121.636577, 38.086391 ], [ -121.634243, 38.087222 ], [ -121.632595, 38.088611 ], [ -121.632425, 38.088994 ], [ -121.631649, 38.090739 ], [ -121.630916, 38.092418 ], [ -121.630092, 38.094607 ], [ -121.629574, 38.096011 ], [ -121.628994, 38.097261 ], [ -121.628353, 38.097918 ], [ -121.627953, 38.098099 ], [ -121.627376, 38.09836 ], [ -121.626064, 38.09848 ], [ -121.613653, 38.09965 ], [ -121.604923, 38.099878 ], [ -121.597593, 38.098549 ], [ -121.593364, 38.097713 ], [ -121.591439, 38.097448 ], [ -121.589529, 38.097086 ], [ -121.588455, 38.096877 ], [ -121.588094, 38.096807 ], [ -121.586963, 38.096675 ], [ -121.585283, 38.096366 ], [ -121.58225, 38.09489 ], [ -121.581284, 38.093937 ], [ -121.580636, 38.094159 ], [ -121.580022, 38.094414 ], [ -121.579252, 38.09342 ], [ -121.578821, 38.092557 ], [ -121.578338, 38.091739 ], [ -121.57776, 38.089466 ], [ -121.577231, 38.086008 ], [ -121.577279, 38.084938 ], [ -121.576966, 38.081613 ], [ -121.577014, 38.080123 ], [ -121.576749, 38.078193 ], [ -121.576076, 38.077257 ], [ -121.575402, 38.076474 ], [ -121.572923, 38.074239 ], [ -121.572893, 38.073742 ], [ -121.573177, 38.073487 ], [ -121.573847, 38.072742 ], [ -121.574829, 38.07184 ], [ -121.576001, 38.071148 ], [ -121.577479, 38.070479 ], [ -121.578489, 38.07006 ], [ -121.57977, 38.069601 ], [ -121.580606, 38.069391 ], [ -121.581131, 38.069257 ], [ -121.581384, 38.069169 ], [ -121.581834, 38.068894 ], [ -121.582203, 38.068423 ], [ -121.582386, 38.067537 ], [ -121.582447, 38.066369 ], [ -121.582193, 38.065159 ], [ -121.582244, 38.064388 ], [ -121.582646, 38.063721 ], [ -121.582919, 38.062902 ], [ -121.583246, 38.061391 ], [ -121.583594, 38.06058 ], [ -121.583879, 38.059897 ], [ -121.583511, 38.05928 ], [ -121.582427, 38.053807 ], [ -121.582305, 38.051436 ], [ -121.583457, 38.047513 ], [ -121.584719, 38.043545 ], [ -121.585078, 38.040267 ], [ -121.584868, 38.03829 ], [ -121.584661, 38.037314 ], [ -121.584388, 38.036025 ], [ -121.583578, 38.034381 ], [ -121.582646, 38.033213 ], [ -121.581686, 38.032355 ], [ -121.580815, 38.032021 ], [ -121.57993, 38.032116 ], [ -121.578834, 38.03264 ], [ -121.578112, 38.033071 ], [ -121.577948, 38.033817 ], [ -121.578354, 38.034547 ], [ -121.579075, 38.035715 ], [ -121.579795, 38.036645 ], [ -121.580426, 38.037956 ], [ -121.580786, 38.038789 ], [ -121.580845, 38.039743 ], [ -121.580185, 38.041268 ], [ -121.579014, 38.042341 ], [ -121.577634, 38.04296 ], [ -121.576042, 38.042985 ], [ -121.574151, 38.042794 ], [ -121.573009, 38.04215 ], [ -121.572169, 38.041412 ], [ -121.571269, 38.0401 ], [ -121.570819, 38.038003 ], [ -121.571028, 38.035238 ], [ -121.571599, 38.03295 ], [ -121.571809, 38.031376 ], [ -121.571388, 38.030423 ], [ -121.570817, 38.029761 ], [ -121.56994, 38.029688 ], [ -121.569261, 38.030014 ], [ -121.56895, 38.030226 ], [ -121.568106, 38.030796 ], [ -121.567482, 38.030933 ], [ -121.567121, 38.030898 ], [ -121.566618, 38.030849 ], [ -121.565674, 38.030721 ], [ -121.564638, 38.030236 ], [ -121.564226, 38.029699 ], [ -121.564162, 38.028525 ], [ -121.56449, 38.026218 ], [ -121.563957, 38.025373 ], [ -121.563754, 38.024757 ], [ -121.563304, 38.023913 ], [ -121.56224, 38.022548 ], [ -121.561257, 38.021541 ], [ -121.560439, 38.020892 ], [ -121.559622, 38.02008 ], [ -121.558845, 38.01943 ], [ -121.558476, 38.018846 ], [ -121.558068, 38.018228 ], [ -121.557739, 38.017515 ], [ -121.557554, 38.017037 ], [ -121.557528, 38.016615 ], [ -121.557727, 38.016226 ], [ -121.557972, 38.015946 ], [ -121.558321, 38.015732 ], [ -121.559469, 38.015614 ], [ -121.560254, 38.015467 ], [ -121.561069, 38.015441 ], [ -121.561898, 38.015607 ], [ -121.563119, 38.016008 ], [ -121.564491, 38.016607 ], [ -121.565202, 38.017346 ], [ -121.566434, 38.018071 ], [ -121.567998, 38.018521 ], [ -121.568895, 38.018639 ], [ -121.570285, 38.018684 ], [ -121.571241, 38.018579 ], [ -121.572052, 38.01841 ], [ -121.57262, 38.018002 ], [ -121.572755, 38.017465 ], [ -121.572789, 38.01691 ], [ -121.572605, 38.016395 ], [ -121.572207, 38.015945 ], [ -121.571691, 38.015616 ], [ -121.571009, 38.015259 ], [ -121.569029, 38.014797 ], [ -121.567931, 38.014294 ], [ -121.566965, 38.013528 ], [ -121.566867, 38.012709 ], [ -121.567149, 38.011983 ], [ -121.56815, 38.011383 ], [ -121.568862, 38.011428 ], [ -121.569545, 38.011389 ], [ -121.571541, 38.011574 ], [ -121.573305, 38.011718 ], [ -121.575085, 38.011507 ], [ -121.577015, 38.01111 ], [ -121.577879, 38.01082 ], [ -121.578496, 38.010278 ], [ -121.579258, 38.009101 ], [ -121.579632, 38.008535 ], [ -121.57991, 38.007783 ], [ -121.579947, 38.007063 ], [ -121.579842, 38.006436 ], [ -121.579795, 38.006231 ], [ -121.57946, 38.005419 ], [ -121.579077, 38.00477 ], [ -121.578711, 38.004255 ], [ -121.578245, 38.003898 ], [ -121.57758, 38.003596 ], [ -121.575999, 38.003292 ], [ -121.57485, 38.003082 ], [ -121.573914, 38.003227 ], [ -121.572378, 38.003264 ], [ -121.570959, 38.003292 ], [ -121.569612, 38.00316 ], [ -121.569096, 38.002789 ], [ -121.568845, 38.002234 ], [ -121.568978, 38.00139 ], [ -121.569428, 38.000425 ], [ -121.569894, 37.999527 ], [ -121.57056, 37.999025 ], [ -121.571208, 37.998866 ], [ -121.572257, 37.998722 ], [ -121.572647, 37.998688 ], [ -121.573529, 37.998908 ], [ -121.57452, 37.99888 ], [ -121.575767, 37.998959 ], [ -121.57783, 37.999025 ], [ -121.578945, 37.99855 ], [ -121.579236, 37.998115 ], [ -121.5791, 37.997871 ], [ -121.577941, 37.997439 ], [ -121.577362, 37.997127 ], [ -121.576884, 37.996573 ], [ -121.576493, 37.995978 ], [ -121.576271, 37.995869 ], [ -121.576084, 37.994855 ], [ -121.57635, 37.994217 ], [ -121.577148, 37.993385 ], [ -121.578379, 37.992329 ], [ -121.580026, 37.991034 ], [ -121.581025, 37.989525 ], [ -121.582463, 37.983922 ], [ -121.58236, 37.983461 ], [ -121.581834, 37.983059 ], [ -121.581378, 37.98276 ], [ -121.580534, 37.982082 ], [ -121.579527, 37.98155 ], [ -121.577614, 37.980969 ], [ -121.575584, 37.980665 ], [ -121.573583, 37.980309 ], [ -121.573142, 37.979957 ], [ -121.572393, 37.979045 ], [ -121.572706, 37.97809 ], [ -121.573288, 37.977654 ], [ -121.574237, 37.977416 ], [ -121.575418, 37.977482 ], [ -121.576965, 37.977759 ], [ -121.578612, 37.977627 ], [ -121.579311, 37.977442 ], [ -121.579993, 37.976967 ], [ -121.58021, 37.97637 ], [ -121.579943, 37.976113 ], [ -121.579462, 37.975982 ], [ -121.578661, 37.975223 ], [ -121.577837, 37.974596 ], [ -121.577147, 37.974244 ], [ -121.57648, 37.973928 ], [ -121.57555, 37.973675 ], [ -121.574823, 37.973025 ], [ -121.574424, 37.972477 ], [ -121.574148, 37.971813 ], [ -121.574025, 37.971253 ], [ -121.573845, 37.970578 ], [ -121.573913, 37.967253 ], [ -121.573713, 37.966434 ], [ -121.573345, 37.966075 ], [ -121.573, 37.965752 ], [ -121.570124, 37.963262 ], [ -121.566393, 37.960985 ], [ -121.565711, 37.960513 ], [ -121.565138, 37.959849 ], [ -121.56497, 37.95896 ], [ -121.565111, 37.958239 ], [ -121.565586, 37.957785 ], [ -121.566537, 37.957614 ], [ -121.567964, 37.957478 ], [ -121.569889, 37.957495 ], [ -121.571578, 37.95753 ], [ -121.573289, 37.957319 ], [ -121.574501, 37.956939 ], [ -121.575143, 37.956239 ], [ -121.575285, 37.955613 ], [ -121.575188, 37.955045 ], [ -121.57452, 37.954439 ], [ -121.573589, 37.953756 ], [ -121.572183, 37.953906 ], [ -121.570156, 37.954224 ], [ -121.56646, 37.95489 ], [ -121.565261, 37.955115 ], [ -121.564113, 37.955115 ], [ -121.563514, 37.954745 ], [ -121.563331, 37.954084 ], [ -121.563692, 37.953512 ], [ -121.564547, 37.952772 ], [ -121.565189, 37.952203 ], [ -121.566495, 37.95101 ], [ -121.567945, 37.949854 ], [ -121.568515, 37.949171 ], [ -121.568846, 37.948452 ], [ -121.568988, 37.947618 ], [ -121.568747, 37.946369 ], [ -121.568603, 37.945459 ], [ -121.568173, 37.94455 ], [ -121.567409, 37.943982 ], [ -121.566622, 37.943961 ], [ -121.56555, 37.944168 ], [ -121.564594, 37.945167 ], [ -121.56364, 37.94611 ], [ -121.562472, 37.946921 ], [ -121.560683, 37.947579 ], [ -121.560038, 37.947606 ], [ -121.559014, 37.947482 ], [ -121.55818, 37.947367 ], [ -121.557846, 37.947007 ], [ -121.557583, 37.946496 ], [ -121.557772, 37.945909 ], [ -121.558175, 37.945379 ], [ -121.559222, 37.94515 ], [ -121.559959, 37.94496 ], [ -121.561004, 37.94492 ], [ -121.561908, 37.944881 ], [ -121.562788, 37.94469 ], [ -121.563406, 37.944273 ], [ -121.563618, 37.94344 ], [ -121.563235, 37.942683 ], [ -121.562013, 37.942132 ], [ -121.561474, 37.941552 ], [ -121.561256, 37.940913 ], [ -121.56088, 37.93988 ], [ -121.561043, 37.93939 ], [ -121.561634, 37.938955 ], [ -121.56185, 37.938225 ], [ -121.561937, 37.937612 ], [ -121.561803, 37.936752 ], [ -121.561455, 37.935885 ], [ -121.560792, 37.935158 ], [ -121.559708, 37.934388 ], [ -121.558737, 37.933728 ], [ -121.558094, 37.933123 ], [ -121.55767, 37.932757 ], [ -121.557274, 37.932247 ], [ -121.557123, 37.931462 ], [ -121.557575, 37.930598 ], [ -121.558323, 37.929848 ], [ -121.558483, 37.929574 ], [ -121.558786, 37.928735 ], [ -121.558899, 37.927926 ], [ -121.558782, 37.927029 ], [ -121.558491, 37.926208 ], [ -121.557985, 37.925359 ], [ -121.557397, 37.924748 ], [ -121.556687, 37.924027 ], [ -121.556408, 37.923639 ], [ -121.556419, 37.923302 ], [ -121.556831, 37.922667 ], [ -121.557274, 37.922006 ], [ -121.558262, 37.921381 ], [ -121.55987, 37.920862 ], [ -121.561864, 37.920436 ], [ -121.563187, 37.919878 ], [ -121.565114, 37.919173 ], [ -121.565656, 37.91849 ], [ -121.565594, 37.918193 ], [ -121.565956, 37.916963 ], [ -121.565981, 37.916259 ], [ -121.565919, 37.916099 ], [ -121.56571, 37.915559 ], [ -121.565324, 37.915057 ], [ -121.564847, 37.914491 ], [ -121.564513, 37.914029 ], [ -121.563983, 37.913343 ], [ -121.563212, 37.912217 ], [ -121.563042, 37.911617 ], [ -121.563289, 37.910601 ], [ -121.564769, 37.909009 ], [ -121.568393, 37.907252 ], [ -121.570922, 37.90596 ], [ -121.572249, 37.905012 ], [ -121.572626, 37.904665 ], [ -121.572824, 37.904301 ], [ -121.572778, 37.903739 ], [ -121.57243, 37.903058 ], [ -121.571769, 37.902497 ], [ -121.571004, 37.902156 ], [ -121.570229, 37.901883 ], [ -121.569113, 37.901521 ], [ -121.568162, 37.901017 ], [ -121.566951, 37.899913 ], [ -121.5662, 37.898774 ], [ -121.565904, 37.897672 ], [ -121.566109, 37.896714 ], [ -121.566245, 37.895937 ], [ -121.566405, 37.895214 ], [ -121.566883, 37.894582 ], [ -121.567179, 37.893751 ], [ -121.567679, 37.892431 ], [ -121.568375, 37.89168 ], [ -121.569121, 37.891248 ], [ -121.569901, 37.890858 ], [ -121.570798, 37.89057 ], [ -121.572186, 37.890154 ], [ -121.573939, 37.889721 ], [ -121.574963, 37.88945 ], [ -121.575532, 37.88898 ], [ -121.575851, 37.888293 ], [ -121.575873, 37.888053 ], [ -121.575922, 37.887551 ], [ -121.575554, 37.886498 ], [ -121.575113, 37.885674 ], [ -121.574849, 37.885021 ], [ -121.574552, 37.884515 ], [ -121.574189, 37.88401 ], [ -121.57387, 37.883395 ], [ -121.574098, 37.882564 ], [ -121.574599, 37.881732 ], [ -121.575008, 37.880828 ], [ -121.575783, 37.87989 ], [ -121.57651, 37.878425 ], [ -121.578194, 37.87548 ], [ -121.579425, 37.8723 ], [ -121.579385, 37.871457 ], [ -121.579334, 37.870637 ], [ -121.578833, 37.86995 ], [ -121.577967, 37.869407 ], [ -121.576739, 37.868594 ], [ -121.575805, 37.868143 ], [ -121.575145, 37.86771 ], [ -121.574393, 37.867058 ], [ -121.57374, 37.866515 ], [ -121.573389, 37.865751 ], [ -121.573518, 37.864927 ], [ -121.573796, 37.864324 ], [ -121.574444, 37.863765 ], [ -121.575463, 37.863118 ], [ -121.576909, 37.86244 ], [ -121.577946, 37.862102 ], [ -121.579132, 37.861513 ], [ -121.579503, 37.861072 ], [ -121.579465, 37.860661 ], [ -121.579429, 37.86016 ], [ -121.579186, 37.859537 ], [ -121.578965, 37.858497 ], [ -121.57865, 37.858041 ], [ -121.578021, 37.857821 ], [ -121.577575, 37.857953 ], [ -121.577094, 37.858234 ], [ -121.576372, 37.858778 ], [ -121.575593, 37.859278 ], [ -121.574259, 37.859836 ], [ -121.573018, 37.860205 ], [ -121.571794, 37.860483 ], [ -121.570683, 37.860646 ], [ -121.569812, 37.860689 ], [ -121.569606, 37.86066 ], [ -121.568978, 37.860573 ], [ -121.568293, 37.859999 ], [ -121.5687, 37.859815 ], [ -121.568767, 37.859785 ], [ -121.569089, 37.859253 ], [ -121.56937, 37.858881 ], [ -121.569852, 37.858531 ], [ -121.570588, 37.85801 ], [ -121.570454, 37.857585 ], [ -121.569557, 37.857244 ], [ -121.568741, 37.857021 ], [ -121.568017, 37.857042 ], [ -121.567576, 37.857329 ], [ -121.567292, 37.857616 ], [ -121.56724, 37.857669 ], [ -121.567142, 37.857739 ], [ -121.567089, 37.857777 ], [ -121.567005, 37.857837 ], [ -121.566974, 37.85786 ], [ -121.566714, 37.85801 ], [ -121.56632, 37.858066 ], [ -121.565903, 37.857863 ], [ -121.565325, 37.857188 ], [ -121.564952, 37.85667 ], [ -121.563345, 37.854227 ], [ -121.56261, 37.853354 ], [ -121.561977, 37.853138 ], [ -121.561509, 37.853333 ], [ -121.561229, 37.853772 ], [ -121.561222, 37.854284 ], [ -121.561487, 37.854742 ], [ -121.562067, 37.855276 ], [ -121.562301, 37.855682 ], [ -121.562347, 37.856085 ], [ -121.562267, 37.85643 ], [ -121.562094, 37.856757 ], [ -121.561813, 37.857135 ], [ -121.561094, 37.85781 ], [ -121.560619, 37.858186 ], [ -121.560326, 37.858596 ], [ -121.559892, 37.858825 ], [ -121.559251, 37.858845 ], [ -121.558446, 37.858614 ], [ -121.557908, 37.858409 ], [ -121.557273, 37.858245 ], [ -121.556177, 37.858051 ], [ -121.555255, 37.858007 ], [ -121.554322, 37.858581 ], [ -121.553742, 37.859233 ], [ -121.553376, 37.859975 ], [ -121.553256, 37.860568 ], [ -121.553123, 37.860963 ], [ -121.552836, 37.861182 ], [ -121.552524, 37.861116 ], [ -121.552133, 37.860826 ], [ -121.551676, 37.8604 ], [ -121.55135, 37.859664 ], [ -121.550889, 37.858797 ], [ -121.550238, 37.857801 ], [ -121.549517, 37.856986 ], [ -121.54928, 37.856725 ], [ -121.548994, 37.85625 ], [ -121.548437, 37.855651 ], [ -121.548088, 37.855411 ], [ -121.547496, 37.855226 ], [ -121.546798, 37.855346 ], [ -121.546078, 37.855549 ], [ -121.544943, 37.856123 ], [ -121.543867, 37.856765 ], [ -121.542754, 37.857173 ], [ -121.541684, 37.857616 ], [ -121.541117, 37.857745 ], [ -121.540643, 37.857597 ], [ -121.540349, 37.857241 ], [ -121.540346, 37.856716 ], [ -121.540592, 37.856315 ], [ -121.541031, 37.85574 ], [ -121.541483, 37.855216 ], [ -121.541547, 37.854212 ], [ -121.541377, 37.853546 ], [ -121.541359, 37.853113 ], [ -121.541626, 37.852504 ], [ -121.542033, 37.851803 ], [ -121.54201, 37.851314 ], [ -121.541731, 37.850917 ], [ -121.541266, 37.850382 ], [ -121.540976, 37.849939 ], [ -121.54072, 37.849413 ], [ -121.540381, 37.849253 ], [ -121.540385, 37.849123 ], [ -121.540035, 37.848842 ], [ -121.539488, 37.848833 ], [ -121.539038, 37.848884 ], [ -121.538412, 37.849251 ], [ -121.538026, 37.849622 ], [ -121.537779, 37.850022 ], [ -121.537633, 37.850598 ], [ -121.537209, 37.850838 ], [ -121.536525, 37.850802 ], [ -121.536199, 37.850814 ], [ -121.535743, 37.850755 ], [ -121.535224, 37.850579 ], [ -121.534705, 37.850349 ], [ -121.534459, 37.850151 ], [ -121.534247, 37.849891 ], [ -121.534145, 37.849619 ], [ -121.534102, 37.849457 ], [ -121.534108, 37.849339 ], [ -121.534167, 37.849023 ], [ -121.534342, 37.84856 ], [ -121.534487, 37.848194 ], [ -121.534539, 37.848057 ], [ -121.534669, 37.847884 ], [ -121.534932, 37.847536 ], [ -121.535326, 37.847317 ], [ -121.535623, 37.847221 ], [ -121.535828, 37.847155 ], [ -121.5363, 37.846926 ], [ -121.536585, 37.846655 ], [ -121.536797, 37.846264 ], [ -121.536766, 37.845816 ], [ -121.536642, 37.845093 ], [ -121.536595, 37.844723 ], [ -121.536675, 37.844401 ], [ -121.536792, 37.844176 ], [ -121.537051, 37.843849 ], [ -121.537518, 37.843488 ], [ -121.537693, 37.843283 ], [ -121.538044, 37.84295 ], [ -121.538158, 37.842636 ], [ -121.538158, 37.842323 ], [ -121.538101, 37.842094 ], [ -121.538044, 37.841823 ], [ -121.537973, 37.841495 ], [ -121.537959, 37.841252 ], [ -121.537987, 37.84091 ], [ -121.538215, 37.840596 ], [ -121.538401, 37.840268 ], [ -121.538501, 37.840125 ], [ -121.538836, 37.839801 ], [ -121.53891, 37.839541 ], [ -121.538872, 37.839301 ], [ -121.538658, 37.839023 ], [ -121.538465, 37.838873 ], [ -121.538251, 37.838645 ], [ -121.538066, 37.838317 ], [ -121.538001, 37.838024 ], [ -121.538051, 37.83776 ], [ -121.538187, 37.837425 ], [ -121.538522, 37.837154 ], [ -121.53895, 37.836875 ], [ -121.539435, 37.836583 ], [ -121.540213, 37.836312 ], [ -121.540855, 37.836084 ], [ -121.54129, 37.83577 ], [ -121.541604, 37.83542 ], [ -121.541861, 37.834785 ], [ -121.542032, 37.834207 ], [ -121.542204, 37.833786 ], [ -121.542467, 37.833372 ], [ -121.542896, 37.833073 ], [ -121.543331, 37.832873 ], [ -121.544187, 37.832545 ], [ -121.545136, 37.832388 ], [ -121.545657, 37.832338 ], [ -121.545871, 37.832338 ], [ -121.546094, 37.832448 ], [ -121.546269, 37.832547 ], [ -121.547744, 37.833383 ], [ -121.548992, 37.833754 ], [ -121.549459, 37.833569 ], [ -121.549849, 37.832876 ], [ -121.550971, 37.831155 ], [ -121.55142, 37.830637 ], [ -121.551969, 37.830005 ], [ -121.552095, 37.829703 ], [ -121.552095, 37.828957 ], [ -121.551797, 37.827713 ], [ -121.552054, 37.827471 ], [ -121.552236, 37.827127 ], [ -121.552156, 37.826774 ], [ -121.551962, 37.826422 ], [ -121.551655, 37.826186 ], [ -121.551268, 37.825987 ], [ -121.551223, 37.825774 ], [ -121.551142, 37.825264 ], [ -121.551154, 37.825101 ], [ -121.551359, 37.824857 ], [ -121.551723, 37.824631 ], [ -121.552167, 37.824423 ], [ -121.552498, 37.824034 ], [ -121.552521, 37.823455 ], [ -121.552259, 37.822798 ], [ -121.55208, 37.822497 ], [ -121.552316, 37.822074 ], [ -121.552455, 37.822147 ], [ -121.55278, 37.821064 ], [ -121.553207, 37.820069 ], [ -121.553258, 37.819525 ], [ -121.553311, 37.818825 ], [ -121.553511, 37.818386 ], [ -121.553899, 37.818005 ], [ -121.554238, 37.817743 ], [ -121.554506, 37.817592 ], [ -121.554837, 37.817467 ], [ -121.555073, 37.817442 ], [ -121.556936, 37.817218 ], [ -121.556948, 37.817071 ], [ -121.55697, 37.816798 ], [ -121.556984, 37.816634 ], [ -121.556997, 37.816488 ], [ -121.557032, 37.81606 ], [ -121.557038, 37.815988 ], [ -121.557051, 37.815763 ], [ -121.557064, 37.815753 ], [ -121.55703, 37.810997 ], [ -121.557007, 37.807276 ], [ -121.556979, 37.802444 ], [ -121.55696, 37.799106 ], [ -121.55696, 37.798996 ], [ -121.55696, 37.798837 ], [ -121.55696, 37.798724 ], [ -121.556959, 37.794734 ], [ -121.557032, 37.794733 ], [ -121.557023, 37.789054 ], [ -121.557023, 37.788707 ], [ -121.557019, 37.785778 ], [ -121.557018, 37.78494 ], [ -121.557014, 37.782644 ], [ -121.557013, 37.78221 ], [ -121.557008, 37.778328 ], [ -121.557005, 37.775755 ], [ -121.557002, 37.77346 ], [ -121.556995, 37.773015 ], [ -121.556991, 37.772771 ], [ -121.556976, 37.771751 ], [ -121.55697, 37.771395 ], [ -121.556968, 37.771324 ], [ -121.556973, 37.770872 ], [ -121.556986, 37.769826 ], [ -121.556983, 37.769608 ], [ -121.556967, 37.768222 ], [ -121.556902, 37.768082 ], [ -121.556864, 37.766193 ], [ -121.556837, 37.764899 ], [ -121.556771, 37.761642 ], [ -121.556715, 37.758836 ], [ -121.556712, 37.758674 ], [ -121.556662, 37.756169 ], [ -121.556661, 37.756157 ], [ -121.556661, 37.75612 ], [ -121.556661, 37.756107 ], [ -121.556658, 37.756028 ], [ -121.556693, 37.755338 ], [ -121.556752, 37.754207 ], [ -121.557045, 37.748506 ], [ -121.557145, 37.746608 ], [ -121.557147, 37.746552 ], [ -121.557156, 37.746384 ], [ -121.557159, 37.746329 ], [ -121.557124, 37.745817 ], [ -121.557022, 37.744286 ], [ -121.556989, 37.743777 ], [ -121.556983, 37.743704 ], [ -121.556968, 37.74349 ], [ -121.556965, 37.743419 ], [ -121.556959, 37.743329 ], [ -121.556959, 37.743195 ], [ -121.556959, 37.743051 ], [ -121.556959, 37.742357 ], [ -121.556959, 37.741826 ], [ -121.556959, 37.741629 ], [ -121.557054, 37.738961 ], [ -121.557058, 37.738838 ], [ -121.557059, 37.73859 ], [ -121.557059, 37.736764 ], [ -121.557058, 37.736016 ], [ -121.557058, 37.733772 ], [ -121.557058, 37.733024 ], [ -121.557058, 37.732292 ], [ -121.557058, 37.730096 ], [ -121.557058, 37.729365 ], [ -121.557058, 37.72805 ], [ -121.557058, 37.724106 ], [ -121.557058, 37.722792 ], [ -121.557058, 37.714822 ], [ -121.557058, 37.714728 ], [ -121.557108, 37.71453 ], [ -121.557119, 37.714486 ], [ -121.557132, 37.71443 ], [ -121.557158, 37.714328 ], [ -121.557134, 37.713087 ], [ -121.557058, 37.709049 ], [ -121.557034, 37.707704 ], [ -121.557019, 37.70691 ], [ -121.556974, 37.704529 ], [ -121.55696, 37.703736 ], [ -121.556959, 37.703705 ], [ -121.556958, 37.703629 ], [ -121.556958, 37.703612 ], [ -121.556958, 37.703581 ], [ -121.556957, 37.700305 ], [ -121.556957, 37.690483 ], [ -121.556959, 37.687209 ], [ -121.556957, 37.685375 ], [ -121.556957, 37.679878 ], [ -121.556958, 37.678047 ], [ -121.556957, 37.676829 ], [ -121.556957, 37.673177 ], [ -121.556957, 37.67196 ], [ -121.556957, 37.671696 ], [ -121.556957, 37.670905 ], [ -121.556957, 37.670642 ], [ -121.556957, 37.670439 ], [ -121.556957, 37.66983 ], [ -121.556957, 37.669627 ], [ -121.556957, 37.664226 ], [ -121.556957, 37.6642 ], [ -121.556957, 37.662892 ], [ -121.556957, 37.64269 ], [ -121.556957, 37.63613 ], [ -121.556928, 37.635959 ], [ -121.556917, 37.635893 ], [ -121.556884, 37.635698 ], [ -121.556874, 37.635633 ], [ -121.556859, 37.635547 ], [ -121.556857, 37.635531 ], [ -121.556862, 37.635288 ], [ -121.556864, 37.635202 ], [ -121.556941, 37.631528 ], [ -121.557175, 37.620508 ], [ -121.557253, 37.616835 ], [ -121.557253, 37.616794 ], [ -121.557256, 37.616671 ], [ -121.557257, 37.616631 ], [ -121.557255, 37.616432 ], [ -121.557249, 37.615835 ], [ -121.557248, 37.615637 ], [ -121.557193, 37.609672 ], [ -121.557031, 37.59178 ], [ -121.556977, 37.585816 ], [ -121.556955, 37.583522 ], [ -121.556893, 37.576644 ], [ -121.556872, 37.574353 ], [ -121.556828, 37.569519 ], [ -121.556788, 37.565102 ], [ -121.556697, 37.555022 ], [ -121.556656, 37.550331 ], [ -121.556656, 37.55019 ], [ -121.556656, 37.550159 ], [ -121.556656, 37.550066 ], [ -121.556656, 37.550036 ], [ -121.556655, 37.549146 ], [ -121.556655, 37.546475 ], [ -121.556655, 37.545586 ], [ -121.556655, 37.542732 ], [ -121.550454, 37.539332 ], [ -121.548355, 37.535932 ], [ -121.546854, 37.535032 ], [ -121.545754, 37.532532 ], [ -121.54328, 37.531593 ], [ -121.542628, 37.530849 ], [ -121.541833, 37.530215 ], [ -121.540611, 37.529822 ], [ -121.540158, 37.529884 ], [ -121.539425, 37.529584 ], [ -121.537946, 37.52973 ], [ -121.537079, 37.529752 ], [ -121.536292, 37.529531 ], [ -121.53619, 37.52908 ], [ -121.535772, 37.529083 ], [ -121.535085, 37.528801 ], [ -121.534179, 37.528605 ], [ -121.533616, 37.528887 ], [ -121.532937, 37.52866 ], [ -121.532694, 37.528653 ], [ -121.532257, 37.528219 ], [ -121.531721, 37.528221 ], [ -121.531364, 37.527397 ], [ -121.530827, 37.527294 ], [ -121.530386, 37.527061 ], [ -121.529897, 37.527048 ], [ -121.528817, 37.52806 ], [ -121.527894, 37.527387 ], [ -121.527128, 37.527163 ], [ -121.526201, 37.527036 ], [ -121.525725, 37.526689 ], [ -121.525478, 37.526508 ], [ -121.523862, 37.526212 ], [ -121.523051, 37.525621 ], [ -121.522595, 37.525043 ], [ -121.522328, 37.524705 ], [ -121.521497, 37.524756 ], [ -121.520422, 37.524589 ], [ -121.519134, 37.524447 ], [ -121.517661, 37.525264 ], [ -121.516749, 37.525512 ], [ -121.515753, 37.525176 ], [ -121.515284, 37.524926 ], [ -121.514137, 37.524917 ], [ -121.513674, 37.524758 ], [ -121.512831, 37.525099 ], [ -121.511509, 37.525075 ], [ -121.509906, 37.524625 ], [ -121.507883, 37.524774 ], [ -121.506368, 37.525549 ], [ -121.505418, 37.525478 ], [ -121.505059, 37.52566 ], [ -121.50491, 37.525737 ], [ -121.50442, 37.525863 ], [ -121.504067, 37.525673 ], [ -121.503403, 37.525604 ], [ -121.502397, 37.52534 ], [ -121.501475, 37.525003 ], [ -121.500766, 37.52431 ], [ -121.50056, 37.523904 ], [ -121.498955, 37.522996 ], [ -121.498268, 37.522427 ], [ -121.498962, 37.521634 ], [ -121.499084, 37.521024 ], [ -121.49958, 37.52014 ], [ -121.499869, 37.520066 ], [ -121.500746, 37.519661 ], [ -121.501351, 37.518965 ], [ -121.502371, 37.51847 ], [ -121.501842, 37.517633 ], [ -121.501168, 37.516867 ], [ -121.500244, 37.516558 ], [ -121.49994, 37.516242 ], [ -121.49987, 37.515108 ], [ -121.499307, 37.514768 ], [ -121.498575, 37.514091 ], [ -121.498471, 37.513682 ], [ -121.498102, 37.513595 ], [ -121.497232, 37.512463 ], [ -121.497162, 37.512293 ], [ -121.49713, 37.511783 ], [ -121.496843, 37.510967 ], [ -121.496677, 37.510198 ], [ -121.496654, 37.510108 ], [ -121.496676, 37.509211 ], [ -121.495681, 37.508741 ], [ -121.495521, 37.508659 ], [ -121.495382, 37.508133 ], [ -121.495611, 37.507615 ], [ -121.495213, 37.50686 ], [ -121.495533, 37.505196 ], [ -121.496017, 37.504938 ], [ -121.495069, 37.504356 ], [ -121.494126, 37.503486 ], [ -121.493594, 37.502717 ], [ -121.493201, 37.502434 ], [ -121.493183, 37.502421 ], [ -121.491912, 37.502366 ], [ -121.491412, 37.502341 ], [ -121.490089, 37.502125 ], [ -121.489381, 37.502142 ], [ -121.488222, 37.501961 ], [ -121.487467, 37.501784 ], [ -121.486593, 37.501388 ], [ -121.485566, 37.501391 ], [ -121.484908, 37.501239 ], [ -121.48377, 37.50116 ], [ -121.483462, 37.501278 ], [ -121.482065, 37.501439 ], [ -121.481469, 37.500267 ], [ -121.48074, 37.499777 ], [ -121.48052, 37.49859 ], [ -121.48007, 37.497905 ], [ -121.479809, 37.497649 ], [ -121.479362, 37.496484 ], [ -121.478079, 37.496339 ], [ -121.477713, 37.49589 ], [ -121.477172, 37.495614 ], [ -121.476386, 37.495577 ], [ -121.476035, 37.495424 ], [ -121.475897, 37.495272 ], [ -121.475485, 37.494532 ], [ -121.47486, 37.494051 ], [ -121.474387, 37.493555 ], [ -121.473761, 37.492777 ], [ -121.472937, 37.492449 ], [ -121.472372, 37.492229 ], [ -121.47196, 37.491733 ], [ -121.471487, 37.491519 ], [ -121.470938, 37.491183 ], [ -121.47074, 37.490794 ], [ -121.470374, 37.490466 ], [ -121.469962, 37.490314 ], [ -121.469687, 37.489993 ], [ -121.469275, 37.489688 ], [ -121.469214, 37.48936 ], [ -121.469275, 37.489093 ], [ -121.469626, 37.488826 ], [ -121.469824, 37.48833 ], [ -121.470038, 37.487109 ], [ -121.470374, 37.486781 ], [ -121.470724, 37.486125 ], [ -121.470654, 37.485981 ], [ -121.470511, 37.485683 ], [ -121.470511, 37.485461 ], [ -121.470786, 37.485293 ], [ -121.471198, 37.485034 ], [ -121.471136, 37.484408 ], [ -121.47106, 37.483699 ], [ -121.47106, 37.483317 ], [ -121.471198, 37.482829 ], [ -121.47161, 37.482387 ], [ -121.471925, 37.481783 ], [ -121.472648, 37.48217 ], [ -121.472708, 37.482202 ], [ -121.472891, 37.4823 ], [ -121.472952, 37.482333 ], [ -121.475527, 37.482337 ], [ -121.483253, 37.482349 ], [ -121.48418, 37.482351 ], [ -121.485829, 37.482354 ], [ -121.48733, 37.482357 ], [ -121.487423, 37.482357 ], [ -121.487515, 37.482357 ], [ -121.487635, 37.482356 ], [ -121.501067, 37.48238 ], [ -121.516218, 37.482404 ], [ -121.516241, 37.482404 ], [ -121.516426, 37.482406 ], [ -121.516611, 37.482406 ], [ -121.516767, 37.482405 ], [ -121.516922, 37.482405 ], [ -121.517773, 37.482408 ], [ -121.518427, 37.482407 ], [ -121.519289, 37.482409 ], [ -121.525028, 37.48242 ], [ -121.525419, 37.482419 ], [ -121.525733, 37.48242 ], [ -121.525765, 37.48242 ], [ -121.526388, 37.482421 ], [ -121.526687, 37.482421 ], [ -121.526863, 37.482422 ], [ -121.527242, 37.482422 ], [ -121.532216, 37.482432 ], [ -121.532233, 37.482432 ], [ -121.53304, 37.482433 ], [ -121.559755, 37.482533 ], [ -121.564355, 37.482433 ], [ -121.586199, 37.482533 ], [ -121.598883, 37.48259 ], [ -121.608284, 37.482633 ], [ -121.608364, 37.482633 ], [ -121.608635, 37.482634 ], [ -121.620321, 37.482634 ], [ -121.620557, 37.482634 ], [ -121.620644, 37.482634 ], [ -121.623179, 37.482634 ], [ -121.623455, 37.482634 ], [ -121.624158, 37.482634 ], [ -121.624208, 37.482633 ], [ -121.624358, 37.482633 ], [ -121.624409, 37.482633 ], [ -121.624579, 37.482631 ], [ -121.62509, 37.482628 ], [ -121.625261, 37.482628 ], [ -121.626001, 37.482635 ], [ -121.628223, 37.482659 ], [ -121.628964, 37.482668 ], [ -121.635027, 37.482733 ], [ -121.635083, 37.482733 ], [ -121.635163, 37.482733 ], [ -121.635416, 37.482734 ], [ -121.635501, 37.482735 ], [ -121.6406, 37.482754 ], [ -121.650444, 37.482791 ], [ -121.655897, 37.482812 ], [ -121.656624, 37.482815 ], [ -121.660944, 37.482831 ], [ -121.660997, 37.482831 ], [ -121.661052, 37.482831 ], [ -121.661737, 37.482833 ], [ -121.670399, 37.48274 ], [ -121.670858, 37.482734 ], [ -121.679401, 37.482779 ], [ -121.681799, 37.482791 ], [ -121.688887, 37.482827 ], [ -121.689079, 37.482828 ], [ -121.69006, 37.482834 ], [ -121.690138, 37.482837 ], [ -121.690929, 37.482855 ], [ -121.690941, 37.482862 ], [ -121.712556, 37.483558 ], [ -121.714178, 37.48361 ], [ -121.714961, 37.483635 ], [ -121.719574, 37.483687 ], [ -121.725008, 37.48375 ], [ -121.734593, 37.48386 ], [ -121.735765, 37.483873 ], [ -121.736814, 37.483884 ], [ -121.736866, 37.483885 ], [ -121.741163, 37.483935 ], [ -121.741186, 37.483935 ], [ -121.741257, 37.483938 ], [ -121.741281, 37.48394 ], [ -121.741328, 37.48394 ], [ -121.746154, 37.483958 ], [ -121.759098, 37.484009 ], [ -121.760632, 37.484015 ], [ -121.765458, 37.484034 ], [ -121.766108, 37.48404 ], [ -121.76806, 37.484058 ], [ -121.768711, 37.484065 ], [ -121.768889, 37.484066 ], [ -121.769423, 37.484072 ], [ -121.769602, 37.484074 ], [ -121.769631, 37.484074 ], [ -121.769718, 37.484074 ], [ -121.769747, 37.484075 ], [ -121.769829, 37.484076 ], [ -121.786235, 37.484236 ], [ -121.795427, 37.483996 ], [ -121.796487, 37.483994 ], [ -121.79967, 37.483992 ], [ -121.800732, 37.483991 ], [ -121.801834, 37.484003 ], [ -121.80451, 37.484031 ], [ -121.815845, 37.484151 ], [ -121.819624, 37.484191 ], [ -121.820426, 37.484199 ], [ -121.822834, 37.484225 ], [ -121.823637, 37.484234 ], [ -121.823866, 37.484236 ], [ -121.824142, 37.484236 ], [ -121.82566, 37.484236 ], [ -121.826166, 37.484236 ], [ -121.826592, 37.484236 ], [ -121.827017, 37.484236 ], [ -121.827221, 37.484236 ], [ -121.830388, 37.484236 ], [ -121.831366, 37.484236 ], [ -121.831444, 37.484241 ], [ -121.831764, 37.484262 ], [ -121.832727, 37.484326 ], [ -121.832866, 37.484336 ], [ -121.833049, 37.484337 ], [ -121.837876, 37.484373 ], [ -121.846197, 37.484435 ], [ -121.84624, 37.484436 ], [ -121.850609, 37.484437 ], [ -121.850651, 37.484437 ], [ -121.855762, 37.484537 ], [ -121.857394, 37.484554 ], [ -121.857727, 37.484557 ], [ -121.858727, 37.484567 ], [ -121.859061, 37.484571 ], [ -121.859926, 37.48458 ], [ -121.862523, 37.484607 ], [ -121.863389, 37.484617 ], [ -121.863422, 37.484617 ], [ -121.864175, 37.484625 ], [ -121.865267, 37.484637 ], [ -121.865292, 37.48462 ], [ -121.866334, 37.483952 ], [ -121.866997, 37.483529 ], [ -121.867584, 37.483159 ], [ -121.867784, 37.483033 ], [ -121.869346, 37.482049 ], [ -121.869934, 37.48168 ], [ -121.869939, 37.481665 ], [ -121.869978, 37.481584 ], [ -121.870001, 37.481538 ], [ -121.870056, 37.481445 ], [ -121.870076, 37.481291 ], [ -121.870056, 37.481186 ], [ -121.870042, 37.481115 ], [ -121.870045, 37.481027 ], [ -121.870048, 37.480961 ], [ -121.870076, 37.480808 ], [ -121.870115, 37.480729 ], [ -121.870131, 37.480698 ], [ -121.870214, 37.480593 ], [ -121.870317, 37.480516 ], [ -121.870339, 37.480493 ], [ -121.870391, 37.480439 ], [ -121.870407, 37.480423 ], [ -121.870489, 37.480329 ], [ -121.870517, 37.480256 ], [ -121.870557, 37.480192 ], [ -121.870565, 37.480176 ], [ -121.870613, 37.480066 ], [ -121.870647, 37.479939 ], [ -121.870647, 37.479807 ], [ -121.87064, 37.479714 ], [ -121.870661, 37.479626 ], [ -121.87073, 37.479538 ], [ -121.870785, 37.47945 ], [ -121.870884, 37.479358 ], [ -121.870909, 37.479335 ], [ -121.871047, 37.479241 ], [ -121.871495, 37.478999 ], [ -121.871708, 37.478867 ], [ -121.872556, 37.478378 ], [ -121.872742, 37.478252 ], [ -121.872866, 37.478197 ], [ -121.872976, 37.478136 ], [ -121.873142, 37.478054 ], [ -121.873307, 37.47801 ], [ -121.873331, 37.478001 ], [ -121.873438, 37.477966 ], [ -121.873521, 37.477927 ], [ -121.873645, 37.477878 ], [ -121.873693, 37.477845 ], [ -121.8739, 37.47757 ], [ -121.874009, 37.477407 ], [ -121.874215, 37.476637 ], [ -121.87429, 37.476362 ], [ -121.874612, 37.475767 ], [ -121.875205, 37.475215 ], [ -121.875779, 37.474999 ], [ -121.876262, 37.474924 ], [ -121.876504, 37.475121 ], [ -121.876567, 37.475117 ], [ -121.876788, 37.475133 ], [ -121.87696, 37.475183 ], [ -121.877112, 37.475216 ], [ -121.877168, 37.475221 ], [ -121.877236, 37.475227 ], [ -121.87745, 37.475183 ], [ -121.877588, 37.475062 ], [ -121.877726, 37.474903 ], [ -121.877822, 37.474673 ], [ -121.877905, 37.47442 ], [ -121.877995, 37.474206 ], [ -121.878112, 37.474046 ], [ -121.878236, 37.473915 ], [ -121.8784, 37.473763 ], [ -121.878623, 37.473558 ], [ -121.878795, 37.473442 ], [ -121.878919, 37.473332 ], [ -121.879002, 37.47319 ], [ -121.879078, 37.472948 ], [ -121.879095, 37.472908 ], [ -121.879258, 37.472542 ], [ -121.87932, 37.472349 ], [ -121.879465, 37.472168 ], [ -121.879686, 37.471932 ], [ -121.879859, 37.471789 ], [ -121.8799, 37.471756 ], [ -121.880251, 37.471548 ], [ -121.880541, 37.4714 ], [ -121.88071, 37.471319 ], [ -121.880865, 37.471246 ], [ -121.881155, 37.471076 ], [ -121.881637, 37.470867 ], [ -121.881996, 37.470708 ], [ -121.882107, 37.470683 ], [ -121.882272, 37.470648 ], [ -121.882416, 37.470598 ], [ -121.882603, 37.470554 ], [ -121.883085, 37.47067 ], [ -121.883333, 37.470753 ], [ -121.883464, 37.470764 ], [ -121.883602, 37.470753 ], [ -121.88374, 37.470731 ], [ -121.883891, 37.470769 ], [ -121.884022, 37.470835 ], [ -121.884291, 37.471121 ], [ -121.884369, 37.471173 ], [ -121.884415, 37.471204 ], [ -121.88456, 37.471275 ], [ -121.884732, 37.47133 ], [ -121.884932, 37.471385 ], [ -121.885159, 37.471413 ], [ -121.885414, 37.471407 ], [ -121.885966, 37.471375 ], [ -121.886311, 37.471287 ], [ -121.887042, 37.471084 ], [ -121.887414, 37.471013 ], [ -121.887738, 37.470936 ], [ -121.888027, 37.470821 ], [ -121.888386, 37.470651 ], [ -121.888662, 37.470535 ], [ -121.888993, 37.470365 ], [ -121.889179, 37.470255 ], [ -121.889352, 37.470102 ], [ -121.889524, 37.469877 ], [ -121.889671, 37.469627 ], [ -121.88969, 37.469596 ], [ -121.889793, 37.469382 ], [ -121.889938, 37.469113 ], [ -121.890028, 37.46891 ], [ -121.890242, 37.468569 ], [ -121.890407, 37.468322 ], [ -121.890635, 37.468108 ], [ -121.890759, 37.468038 ], [ -121.890856, 37.467982 ], [ -121.891131, 37.46791 ], [ -121.891386, 37.46785 ], [ -121.891945, 37.467812 ], [ -121.8922, 37.467746 ], [ -121.892489, 37.467741 ], [ -121.892958, 37.467675 ], [ -121.893234, 37.467664 ], [ -121.893606, 37.467675 ], [ -121.893792, 37.46767 ], [ -121.894061, 37.467637 ], [ -121.894295, 37.46762 ], [ -121.894619, 37.467582 ], [ -121.894992, 37.467544 ], [ -121.895653, 37.467412 ], [ -121.895888, 37.467352 ], [ -121.896088, 37.467313 ], [ -121.896301, 37.467292 ], [ -121.896508, 37.467204 ], [ -121.896646, 37.467121 ], [ -121.896825, 37.467072 ], [ -121.896984, 37.467045 ], [ -121.897342, 37.467023 ], [ -121.897653, 37.466973 ], [ -121.897853, 37.46688 ], [ -121.898038, 37.466768 ], [ -121.898052, 37.466759 ], [ -121.89821, 37.46671 ], [ -121.898306, 37.466661 ], [ -121.898382, 37.466551 ], [ -121.898842, 37.465954 ], [ -121.898973, 37.465845 ], [ -121.899253, 37.465774 ], [ -121.899604, 37.465719 ], [ -121.899893, 37.465642 ], [ -121.900133, 37.465522 ], [ -121.90038, 37.465429 ], [ -121.900778, 37.46521 ], [ -121.901011, 37.46509 ], [ -121.901231, 37.464992 ], [ -121.901307, 37.464958 ], [ -121.901524, 37.464904 ], [ -121.901569, 37.464893 ], [ -121.902065, 37.464794 ], [ -121.902231, 37.464745 ], [ -121.902379, 37.464702 ], [ -121.902575, 37.464646 ], [ -121.902664, 37.464642 ], [ -121.902756, 37.464637 ], [ -121.902817, 37.464635 ], [ -121.903034, 37.464658 ], [ -121.903127, 37.464668 ], [ -121.903287, 37.464668 ], [ -121.903333, 37.464668 ], [ -121.903575, 37.464624 ], [ -121.90376, 37.464578 ], [ -121.903917, 37.46454 ], [ -121.904067, 37.464502 ], [ -121.904296, 37.464446 ], [ -121.904339, 37.464435 ], [ -121.904354, 37.464432 ], [ -121.9044, 37.464419 ], [ -121.90452, 37.464388 ], [ -121.904671, 37.46435 ], [ -121.904741, 37.464333 ], [ -121.904951, 37.464283 ], [ -121.905022, 37.464267 ], [ -121.905065, 37.464259 ], [ -121.905196, 37.464234 ], [ -121.90524, 37.464227 ], [ -121.905519, 37.464116 ], [ -121.906001, 37.463927 ], [ -121.906354, 37.463831 ], [ -121.906372, 37.463826 ], [ -121.906666, 37.463759 ], [ -121.90672, 37.463746 ], [ -121.906835, 37.46372 ], [ -121.907011, 37.463628 ], [ -121.907108, 37.463589 ], [ -121.907094, 37.463502 ], [ -121.907077, 37.46341 ], [ -121.907069, 37.463364 ], [ -121.907223, 37.463314 ], [ -121.907291, 37.463292 ], [ -121.907311, 37.463286 ], [ -121.907339, 37.463353 ], [ -121.907388, 37.46347 ], [ -121.907467, 37.463437 ], [ -121.9076, 37.46341 ], [ -121.908086, 37.46321 ], [ -121.908124, 37.463199 ], [ -121.908581, 37.463043 ], [ -121.908728, 37.463031 ], [ -121.908923, 37.463013 ], [ -121.909129, 37.462995 ], [ -121.909162, 37.462978 ], [ -121.911332, 37.462236 ], [ -121.910887, 37.461486 ], [ -121.912015, 37.46096 ], [ -121.912652, 37.46065 ], [ -121.91283, 37.460566 ], [ -121.913031, 37.460471 ], [ -121.913177, 37.460402 ], [ -121.913459, 37.460247 ], [ -121.913903, 37.460021 ], [ -121.914397, 37.459774 ], [ -121.914884, 37.459548 ], [ -121.915336, 37.459309 ], [ -121.915805, 37.459099 ], [ -121.916359, 37.45884 ], [ -121.917097, 37.458473 ], [ -121.917265, 37.458391 ], [ -121.917353, 37.458345 ], [ -121.918928, 37.457498 ], [ -121.919018, 37.457451 ], [ -121.921075, 37.456342 ], [ -121.922305, 37.455679 ], [ -121.922569, 37.455538 ], [ -121.922837, 37.455386 ], [ -121.922962, 37.455317 ], [ -121.923001, 37.455296 ], [ -121.923262, 37.455153 ], [ -121.923567, 37.454986 ], [ -121.924375, 37.454559 ], [ -121.924398, 37.454547 ], [ -121.92448, 37.454506 ], [ -121.924593, 37.454441 ], [ -121.924746, 37.454354 ], [ -121.925041, 37.454186 ], [ -121.925224, 37.454293 ], [ -121.925354, 37.454294 ], [ -121.925393, 37.454295 ], [ -121.925548, 37.454389 ], [ -121.925566, 37.45439 ], [ -121.925621, 37.454395 ], [ -121.92564, 37.454397 ], [ -121.925712, 37.454417 ], [ -121.925783, 37.454436 ], [ -121.925945, 37.454479 ], [ -121.926197, 37.454546 ], [ -121.926294, 37.454573 ], [ -121.926356, 37.454708 ], [ -121.926417, 37.454841 ], [ -121.92643, 37.454868 ], [ -121.926571, 37.455021 ], [ -121.926581, 37.455032 ], [ -121.926604, 37.45506 ], [ -121.926755, 37.455241 ], [ -121.92686, 37.455246 ], [ -121.926901, 37.455249 ], [ -121.926971, 37.45522 ], [ -121.92704, 37.455193 ], [ -121.927076, 37.455179 ], [ -121.927363, 37.455029 ], [ -121.927384, 37.455036 ], [ -121.927622, 37.455131 ], [ -121.927633, 37.455136 ], [ -121.927655, 37.455148 ], [ -121.927786, 37.455214 ], [ -121.92785, 37.455262 ], [ -121.92786, 37.455279 ], [ -121.927889, 37.455333 ], [ -121.9279, 37.455352 ], [ -121.927866, 37.455416 ], [ -121.927796, 37.45555 ], [ -121.927726, 37.455683 ], [ -121.927559, 37.456 ], [ -121.927495, 37.456123 ], [ -121.927441, 37.456279 ], [ -121.92742, 37.456372 ], [ -121.927418, 37.456543 ], [ -121.927461, 37.456705 ], [ -121.927561, 37.456925 ], [ -121.927793, 37.457124 ], [ -121.928025, 37.45725 ], [ -121.928166, 37.457303 ], [ -121.928297, 37.457332 ], [ -121.928444, 37.457394 ], [ -121.928609, 37.457276 ], [ -121.928802, 37.45714 ], [ -121.928926, 37.457052 ], [ -121.929049, 37.456965 ], [ -121.929128, 37.456909 ], [ -121.929207, 37.456853 ], [ -121.929373, 37.456865 ], [ -121.929481, 37.45684 ], [ -121.930135, 37.456691 ], [ -121.930283, 37.456615 ], [ -121.930531, 37.456489 ], [ -121.930952, 37.456158 ], [ -121.931374, 37.455829 ], [ -121.931462, 37.45576 ], [ -121.932069, 37.455277 ], [ -121.932626, 37.455147 ], [ -121.932899, 37.455447 ], [ -121.932884, 37.455844 ], [ -121.932876, 37.456239 ], [ -121.932712, 37.456842 ], [ -121.932656, 37.456919 ], [ -121.932582, 37.456942 ], [ -121.932507, 37.456965 ], [ -121.932195, 37.457061 ], [ -121.931882, 37.457158 ], [ -121.931245, 37.457353 ], [ -121.931128, 37.45739 ], [ -121.931179, 37.457911 ], [ -121.93141, 37.458187 ], [ -121.931451, 37.458399 ], [ -121.931521, 37.458831 ], [ -121.93137, 37.4591 ], [ -121.93139, 37.459595 ], [ -121.931128, 37.460158 ], [ -121.931199, 37.460413 ], [ -121.931199, 37.460644 ], [ -121.931471, 37.460911 ], [ -121.931934, 37.460977 ], [ -121.932085, 37.460999 ], [ -121.93267, 37.460974 ], [ -121.933378, 37.460762 ], [ -121.933069, 37.460738 ], [ -121.932941, 37.460667 ], [ -121.932778, 37.460576 ], [ -121.932616, 37.460486 ], [ -121.932495, 37.460419 ], [ -121.932374, 37.460352 ], [ -121.932896, 37.460266 ], [ -121.933578, 37.460271 ], [ -121.934116, 37.460331 ], [ -121.934732, 37.460524 ], [ -121.934941, 37.460664 ], [ -121.935137, 37.46084 ], [ -121.935242, 37.461068 ], [ -121.935277, 37.461327 ], [ -121.935296, 37.461421 ], [ -121.935255, 37.461504 ], [ -121.935214, 37.461586 ], [ -121.934947, 37.46212 ], [ -121.93495, 37.462145 ], [ -121.93496, 37.462235 ], [ -121.934976, 37.462376 ], [ -121.934987, 37.462464 ], [ -121.93538, 37.462669 ], [ -121.936025, 37.462929 ], [ -121.936478, 37.462883 ], [ -121.937884, 37.462599 ], [ -121.937958, 37.462585 ], [ -121.938328, 37.46251 ], [ -121.938697, 37.462436 ], [ -121.9388, 37.462415 ], [ -121.938903, 37.462394 ], [ -121.939241, 37.462487 ], [ -121.939514, 37.46271 ], [ -121.940023, 37.463125 ], [ -121.940179, 37.463463 ], [ -121.940462, 37.464075 ], [ -121.940515, 37.464346 ], [ -121.940594, 37.46445 ], [ -121.940792, 37.464709 ], [ -121.941085, 37.464948 ], [ -121.941182, 37.464946 ], [ -121.941278, 37.464944 ], [ -121.941491, 37.464944 ], [ -121.941578, 37.464945 ], [ -121.942357, 37.464963 ], [ -121.943045, 37.465104 ], [ -121.943101, 37.465116 ], [ -121.943257, 37.465214 ], [ -121.943364, 37.465281 ], [ -121.943471, 37.465348 ], [ -121.943779, 37.465457 ], [ -121.944226, 37.465822 ], [ -121.944335, 37.466093 ], [ -121.944332, 37.466309 ], [ -121.944317, 37.4674 ], [ -121.944144, 37.467623 ], [ -121.944137, 37.468119 ], [ -121.944244, 37.468526 ], [ -121.944522, 37.468889 ], [ -121.944914, 37.469163 ], [ -121.945479, 37.469168 ], [ -121.945894, 37.469006 ], [ -121.945934, 37.468991 ], [ -121.946449, 37.46859 ], [ -121.946679, 37.468277 ], [ -121.946781, 37.467965 ], [ -121.946797, 37.467918 ], [ -121.946912, 37.467783 ], [ -121.946914, 37.467648 ], [ -121.947087, 37.467424 ], [ -121.946987, 37.466477 ], [ -121.94699, 37.466252 ], [ -121.946772, 37.465664 ], [ -121.946624, 37.465408 ], [ -121.946276, 37.464803 ], [ -121.946167, 37.464487 ], [ -121.946174, 37.463946 ], [ -121.946409, 37.463362 ], [ -121.947041, 37.462602 ], [ -121.947842, 37.461978 ], [ -121.948126, 37.461845 ], [ -121.948979, 37.461538 ], [ -121.949375, 37.461496 ], [ -121.949602, 37.461408 ], [ -121.950733, 37.461418 ], [ -121.951766, 37.461455 ], [ -121.951921, 37.461461 ], [ -121.952819, 37.461674 ], [ -121.953391, 37.461945 ], [ -121.954109, 37.462112 ], [ -121.954387, 37.462186 ], [ -121.954402, 37.462193 ], [ -121.954451, 37.462204 ], [ -121.955378, 37.462582 ], [ -121.955579, 37.46264 ], [ -121.955889, 37.46273 ], [ -121.957624, 37.463199 ], [ -121.959261, 37.463505 ], [ -121.959313, 37.463515 ], [ -121.964157, 37.463151 ], [ -121.965951, 37.462813 ], [ -121.967064, 37.462487 ], [ -121.968074, 37.462168 ], [ -121.968112, 37.46215 ], [ -121.968524, 37.461953 ], [ -121.970821, 37.461507 ], [ -121.974471, 37.460739 ], [ -121.974706, 37.46074 ], [ -121.974772, 37.460739 ], [ -121.975071, 37.460639 ], [ -121.978474, 37.460809 ], [ -121.979071, 37.460839 ], [ -121.980014, 37.460892 ], [ -121.980171, 37.460939 ], [ -121.989435, 37.463681 ], [ -121.992669, 37.464639 ], [ -121.992975, 37.464923 ], [ -121.994311, 37.466049 ], [ -121.995502, 37.466744 ], [ -121.996471, 37.467039 ], [ -121.996671, 37.467239 ], [ -121.997171, 37.467139 ], [ -121.997771, 37.467139 ], [ -121.998248, 37.467095 ], [ -121.999822, 37.466953 ], [ -121.999972, 37.466939 ], [ -122.001073, 37.466844 ], [ -122.002434, 37.466727 ], [ -122.003796, 37.46661 ], [ -122.016215, 37.46554 ], [ -122.020872, 37.465139 ], [ -122.021153, 37.465073 ], [ -122.022201, 37.465125 ], [ -122.022472, 37.465139 ], [ -122.022526, 37.46515 ], [ -122.023487, 37.465355 ], [ -122.023808, 37.465424 ], [ -122.025425, 37.46563 ], [ -122.026859, 37.46553 ], [ -122.027775, 37.465469 ], [ -122.029896, 37.465317 ], [ -122.031651, 37.465241 ], [ -122.033756, 37.465126 ], [ -122.034809, 37.46505 ], [ -122.036182, 37.464966 ], [ -122.037266, 37.464699 ], [ -122.038075, 37.46431 ], [ -122.03837, 37.46416 ], [ -122.040698, 37.462975 ], [ -122.041767, 37.462292 ], [ -122.042541, 37.461811 ], [ -122.043295, 37.461399 ], [ -122.043394, 37.461345 ], [ -122.044399, 37.460773 ], [ -122.044474, 37.46073 ], [ -122.044587, 37.460666 ], [ -122.045271, 37.460276 ], [ -122.045857, 37.459938 ], [ -122.046574, 37.459526 ], [ -122.047825, 37.459007 ], [ -122.048185, 37.458973 ], [ -122.04897, 37.4589 ], [ -122.050313, 37.4589 ], [ -122.050763, 37.458951 ], [ -122.051244, 37.459007 ], [ -122.051931, 37.459251 ], [ -122.052648, 37.459656 ], [ -122.057486, 37.462707 ], [ -122.059673, 37.464087 ], [ -122.060202, 37.46442 ], [ -122.06179, 37.465422 ], [ -122.06232, 37.465756 ], [ -122.063508, 37.466506 ], [ -122.067075, 37.468756 ], [ -122.068264, 37.469506 ], [ -122.068384, 37.469582 ], [ -122.068747, 37.46981 ], [ -122.068868, 37.469887 ], [ -122.068965, 37.469948 ], [ -122.069259, 37.470133 ], [ -122.069357, 37.470195 ], [ -122.07178, 37.471723 ], [ -122.079049, 37.476309 ], [ -122.081473, 37.477838 ], [ -122.087103, 37.481805 ], [ -122.103995, 37.493706 ], [ -122.109574, 37.497637 ], [ -122.109615, 37.497685 ], [ -122.109929, 37.498057 ], [ -122.110243, 37.498429 ], [ -122.111131, 37.499481 ], [ -122.111515, 37.499937 ], [ -122.115679, 37.504872 ], [ -122.116233, 37.505529 ], [ -122.116714, 37.5061 ], [ -122.117195, 37.50667 ], [ -122.11724, 37.506721 ], [ -122.117285, 37.506772 ], [ -122.11732, 37.506811 ], [ -122.117353, 37.506849 ], [ -122.117393, 37.506894 ], [ -122.117472, 37.50699 ], [ -122.118285, 37.507985 ], [ -122.120963, 37.511258 ], [ -122.121856, 37.51235 ], [ -122.123099, 37.513867 ], [ -122.12683, 37.518419 ], [ -122.128074, 37.519937 ], [ -122.130414, 37.522816 ], [ -122.137434, 37.531456 ], [ -122.139775, 37.534336 ], [ -122.141655, 37.536635 ], [ -122.147295, 37.543535 ], [ -122.149175, 37.545835 ], [ -122.149429, 37.546159 ], [ -122.150194, 37.547134 ], [ -122.150449, 37.547459 ], [ -122.151574, 37.548894 ], [ -122.154949, 37.553199 ], [ -122.156075, 37.554635 ], [ -122.158315, 37.557455 ], [ -122.165035, 37.565915 ], [ -122.167276, 37.568735 ], [ -122.169821, 37.571884 ], [ -122.174468, 37.577634 ], [ -122.177457, 37.581331 ], [ -122.180003, 37.58448 ], [ -122.181337, 37.58613 ], [ -122.185341, 37.591083 ], [ -122.186676, 37.592734 ], [ -122.18671, 37.592775 ], [ -122.186812, 37.592899 ], [ -122.186846, 37.592941 ], [ -122.188361, 37.594784 ], [ -122.192908, 37.600315 ], [ -122.194424, 37.602159 ], [ -122.194834, 37.602658 ], [ -122.195422, 37.603373 ], [ -122.196067, 37.604158 ], [ -122.19642, 37.604587 ], [ -122.196528, 37.604718 ], [ -122.196709, 37.604939 ], [ -122.196819, 37.605072 ], [ -122.197653, 37.606088 ], [ -122.197932, 37.606427 ], [ -122.200076, 37.609035 ], [ -122.206509, 37.616862 ], [ -122.208654, 37.619471 ], [ -122.21075, 37.622022 ], [ -122.21666, 37.629211 ], [ -122.217041, 37.629675 ], [ -122.218717, 37.631714 ], [ -122.219045, 37.632113 ], [ -122.219138, 37.632226 ], [ -122.219416, 37.632564 ], [ -122.220252, 37.633581 ], [ -122.220531, 37.63392 ], [ -122.222441, 37.636244 ], [ -122.228172, 37.643217 ], [ -122.230083, 37.645542 ], [ -122.233402, 37.649579 ], [ -122.243359, 37.661693 ], [ -122.246679, 37.665731 ], [ -122.247739, 37.667071 ], [ -122.250919, 37.671091 ], [ -122.251226, 37.67148 ], [ -122.251979, 37.672431 ], [ -122.254712, 37.675722 ], [ -122.262912, 37.685596 ], [ -122.264695, 37.687744 ], [ -122.265646, 37.688888 ], [ -122.268864, 37.692763 ], [ -122.27852, 37.704389 ], [ -122.28088, 37.70723 ], [ -122.28178, 37.70823 ], [ -122.28246, 37.709309 ], [ -122.2845, 37.71255 ], [ -122.28518, 37.71363 ], [ -122.286099, 37.71507 ], [ -122.28886, 37.71939 ], [ -122.28978, 37.72083 ], [ -122.2902, 37.72149 ], [ -122.29146, 37.72347 ], [ -122.29188, 37.72413 ], [ -122.29222, 37.72463 ], [ -122.29324, 37.72613 ], [ -122.29358, 37.72663 ], [ -122.29376, 37.72691 ], [ -122.2943, 37.72775 ], [ -122.29448, 37.72803 ], [ -122.297668, 37.733196 ], [ -122.30028, 37.737429 ], [ -122.30118, 37.738829 ], [ -122.30728, 37.748668 ], [ -122.31048, 37.753829 ], [ -122.313136, 37.757999 ], [ -122.316092, 37.762638 ], [ -122.321342, 37.770881 ], [ -122.306751, 37.766772 ], [ -122.291808, 37.763008 ], [ -122.282265, 37.760179 ], [ -122.266906, 37.755304 ], [ -122.259468, 37.752594 ], [ -122.262689, 37.747717 ], [ -122.268754, 37.738534 ], [ -122.269116, 37.737983 ], [ -122.264426, 37.732948 ], [ -122.260998, 37.737834 ], [ -122.261656, 37.739242 ], [ -122.261715, 37.740582 ], [ -122.261568, 37.74135 ], [ -122.260067, 37.749206 ], [ -122.257031, 37.749163 ], [ -122.253354, 37.749113 ], [ -122.253014, 37.749108 ], [ -122.251996, 37.749094 ], [ -122.251657, 37.74909 ], [ -122.251089, 37.749083 ], [ -122.248574, 37.748993 ], [ -122.239749, 37.748677 ], [ -122.239326, 37.748662 ], [ -122.236423, 37.748558 ], [ -122.236405, 37.748549 ], [ -122.236366, 37.748556 ], [ -122.236285, 37.748553 ], [ -122.236244, 37.748552 ], [ -122.236185, 37.748555 ], [ -122.236124, 37.74856 ], [ -122.236038, 37.748566 ], [ -122.23601, 37.748567 ], [ -122.235952, 37.748571 ], [ -122.235787, 37.748628 ], [ -122.235229, 37.748687 ], [ -122.233947, 37.748826 ], [ -122.227908, 37.749477 ], [ -122.226104, 37.749671 ], [ -122.226076, 37.749674 ], [ -122.225895, 37.749694 ], [ -122.225631, 37.75036 ], [ -122.224842, 37.752361 ], [ -122.224579, 37.753028 ], [ -122.224419, 37.753308 ], [ -122.223939, 37.754148 ], [ -122.223779, 37.754428 ], [ -122.223481, 37.754702 ], [ -122.223647, 37.756926 ], [ -122.223648, 37.756944 ], [ -122.223757, 37.758387 ], [ -122.22394, 37.760838 ], [ -122.224213, 37.762813 ], [ -122.224697, 37.764099 ], [ -122.224904, 37.764563 ], [ -122.224925, 37.7646 ], [ -122.225288, 37.765418 ], [ -122.225756, 37.765965 ], [ -122.226583, 37.766934 ], [ -122.22865, 37.768306 ], [ -122.23001, 37.768893 ], [ -122.230205, 37.768977 ], [ -122.230314, 37.769024 ], [ -122.230454, 37.769085 ], [ -122.236355, 37.771633 ], [ -122.236488, 37.771696 ], [ -122.236566, 37.771731 ], [ -122.238027, 37.77236 ], [ -122.240498, 37.773732 ], [ -122.241729, 37.774714 ], [ -122.243536, 37.776278 ], [ -122.24362, 37.776445 ], [ -122.244055, 37.777418 ], [ -122.244817, 37.779123 ], [ -122.244829, 37.779258 ], [ -122.244844, 37.779427 ], [ -122.24485, 37.779498 ], [ -122.244978, 37.780925 ], [ -122.245159, 37.782324 ], [ -122.245219, 37.783033 ], [ -122.245759, 37.783933 ], [ -122.245801, 37.783971 ], [ -122.246591, 37.784679 ], [ -122.247498, 37.785247 ], [ -122.248662, 37.785836 ], [ -122.251332, 37.786881 ], [ -122.252676, 37.786987 ], [ -122.253958, 37.786779 ], [ -122.255556, 37.786179 ], [ -122.256889, 37.785677 ], [ -122.258098, 37.785224 ], [ -122.259338, 37.784755 ], [ -122.260056, 37.784489 ], [ -122.260683, 37.784742 ], [ -122.261379, 37.785022 ], [ -122.264527, 37.786292 ], [ -122.267162, 37.78733 ], [ -122.268217, 37.787741 ], [ -122.268544, 37.787934 ], [ -122.271189, 37.789491 ], [ -122.273879, 37.791081 ], [ -122.274225, 37.791259 ], [ -122.274407, 37.791354 ], [ -122.274709, 37.791511 ], [ -122.275892, 37.792123 ], [ -122.276005, 37.792175 ], [ -122.27623, 37.792269 ], [ -122.276823, 37.792523 ], [ -122.278175, 37.793105 ], [ -122.278243, 37.793129 ], [ -122.279674, 37.793417 ], [ -122.280879, 37.79352 ], [ -122.281142, 37.793525 ], [ -122.284396, 37.793597 ], [ -122.285971, 37.793616 ], [ -122.286379, 37.793565 ], [ -122.289331, 37.793196 ], [ -122.289452, 37.793181 ], [ -122.290549, 37.792998 ], [ -122.292372, 37.79264 ], [ -122.293834, 37.792353 ], [ -122.294801, 37.792163 ], [ -122.295978, 37.791932 ], [ -122.30104, 37.791954 ], [ -122.305802, 37.792572 ], [ -122.307988, 37.793046 ], [ -122.312606, 37.794048 ], [ -122.315064, 37.794579 ], [ -122.320183, 37.795689 ], [ -122.328507, 37.797493 ], [ -122.332138, 37.798751 ], [ -122.33262, 37.798922 ], [ -122.340515, 37.801664 ], [ -122.341021, 37.80183 ], [ -122.341561, 37.802707 ] ] ] ] } }
]
}
