{
  "type": "FeatureCollection",
  "name": "Alameda_TravelAnalysisZone_962",
  "crs": {
    "type": "name",
    "properties": {
      "name": "urn:ogc:def:crs:OGC:1.3:CRS84"
    }
  },
  "features": [
    {
      "type": "Feature",
      "properties": {
        "SUPERD": 18,
        "TAZ1454": 962,
        "Shape__Are": 0.0,
        "Shape__Len": 0.0
      },
      "geometry": {
        "type": "MultiPolygon",
        "coordinates": [
          [
            [
              [
                -122.28140300031686,
                37.78016100065283
              ],
              [
                -122.28090699963607,
                37.78013800079183
              ],
              [
                -122.28013299977107,
                37.78010200106058
              ],
              [
                -122.2771000003662,
                37.779959000310804
              ],
              [
                -122.27707099965019,
                37.77949300052968
              ],
              [
                -122.27708000010314,
                37.7784280006353
              ],
              [
                -122.2770800003859,
                37.777428000704234
              ],
              [
                -122.27707999977248,
                37.776528000527634
              ],
              [
                -122.27708000029354,
                37.77542800033569
              ],
              [
                -122.2796799998489,
                37.77552800057036
              ],
              [
                -122.2810799995049,
                37.77552800080999
              ],
              [
                -122.281837000466,
                37.775575000956614
              ],
              [
                -122.28268000045757,
                37.77562800065209
              ],
              [
                -122.2856800000062,
                37.77662800079793
              ],
              [
                -122.28627999985288,
                37.776628000744296
              ],
              [
                -122.28837999946883,
                37.776628000829405
              ],
              [
                -122.2891800001476,
                37.77662800037723
              ],
              [
                -122.28977999950263,
                37.77672800051602
              ],
              [
                -122.29038000029348,
                37.77672800032106
              ],
              [
                -122.29148700032862,
                37.7768130007629
              ],
              [
                -122.29167999985627,
                37.77682800067205
              ],
              [
                -122.29177999948772,
                37.7779280005128
              ],
              [
                -122.2917799999894,
                37.778228000459976
              ],
              [
                -122.29177999979929,
                37.778828000301914
              ],
              [
                -122.29208000029672,
                37.779928000960545
              ],
              [
                -122.29188000049776,
                37.780228000459
              ],
              [
                -122.29170400003859,
                37.78025700026482
              ],
              [
                -122.29127999995269,
                37.78032800091176
              ],
              [
                -122.28947999991294,
                37.78022800040138
              ],
              [
                -122.28827999973252,
                37.78022800096614
              ],
              [
                -122.2869120001956,
                37.78022800108922
              ],
              [
                -122.28528000021383,
                37.7802280002824
              ],
              [
                -122.28417999954952,
                37.78032800040707
              ],
              [
                -122.28268000034272,
                37.780228000324286
              ],
              [
                -122.28140300031686,
                37.78016100065283
              ]
            ]
          ]
        ]
      }
    }
  ]
}