{
  "type": "FeatureCollection",
  "name": "Alameda_TravelAnalysisZone_961",
  "crs": {
    "type": "name",
    "properties": {
      "name": "urn:ogc:def:crs:OGC:1.3:CRS84"
    }
  },
  "features": [
    {
      "type": "Feature",
      "properties": {
        "SUPERD": 18,
        "TAZ1454": 961,
        "Shape__Are": 0.0,
        "Shape__Len": 0.0
      },
      "geometry": {
        "type": "MultiPolygon",
        "coordinates": [
          [
            [
              [
                -122.27597999985332,
                37.79042800083759
              ],
              [
                -122.27667999963904,
                37.78942800065896
              ],
              [
                -122.27707999949104,
                37.788228000305104
              ],
              [
                -122.27707999976711,
                37.78582800088044
              ],
              [
                -122.27707999961613,
                37.785328001102975
              ],
              [
                -122.27708499942891,
                37.784444000317826
              ],
              [
                -122.27707999942473,
                37.78402800112627
              ],
              [
                -122.27707999948873,
                37.782332000655515
              ],
              [
                -122.27708000034131,
                37.78082800033315
              ],
              [
                -122.2771000003662,
                37.779959000310804
              ],
              [
                -122.28013299977107,
                37.78010200106058
              ],
              [
                -122.28090699963607,
                37.78013800079183
              ],
              [
                -122.28140300031686,
                37.78016100065283
              ],
              [
                -122.28268000034272,
                37.780228000324286
              ],
              [
                -122.28417999954952,
                37.78032800040707
              ],
              [
                -122.28528000021383,
                37.7802280002824
              ],
              [
                -122.2869120001956,
                37.78022800108922
              ],
              [
                -122.28827999973252,
                37.78022800096614
              ],
              [
                -122.28947999991294,
                37.78022800040138
              ],
              [
                -122.29127999995269,
                37.78032800091176
              ],
              [
                -122.29170400003859,
                37.78025700026482
              ],
              [
                -122.29188000049776,
                37.780228000459
              ],
              [
                -122.29177999958331,
                37.78232800088695
              ],
              [
                -122.29178000049195,
                37.7831280010215
              ],
              [
                -122.29182100022913,
                37.783749000277055
              ],
              [
                -122.29178000047203,
                37.78382800025772
              ],
              [
                -122.29177999997871,
                37.78462800108406
              ],
              [
                -122.29178000046304,
                37.78512800042424
              ],
              [
                -122.29178000009095,
                37.78642800030536
              ],
              [
                -122.29207999999723,
                37.78732800093209
              ],
              [
                -122.29387999950791,
                37.78892800111586
              ],
              [
                -122.29430799944029,
                37.78933400048482
              ],
              [
                -122.29437999970084,
                37.78942800071572
              ],
              [
                -122.29482400018469,
                37.7898030008029
              ],
              [
                -122.29488000014491,
                37.79082800081521
              ],
              [
                -122.2938800003306,
                37.791128001063
              ],
              [
                -122.29088000027754,
                37.792028001056195
              ],
              [
                -122.29057999994262,
                37.79092800034863
              ],
              [
                -122.2902799995485,
                37.79202800059448
              ],
              [
                -122.28987999982459,
                37.79092800048036
              ],
              [
                -122.28958000019395,
                37.792328000809626
              ],
              [
                -122.28917999972987,
                37.79092800095913
              ],
              [
                -122.28868000048243,
                37.79242800047431
              ],
              [
                -122.28838000047239,
                37.7909280007958
              ],
              [
                -122.28787999972667,
                37.79252800106629
              ],
              [
                -122.2806799998105,
                37.79262800025841
              ],
              [
                -122.27728000021176,
                37.791828000712826
              ],
              [
                -122.27708000028993,
                37.79152800042484
              ],
              [
                -122.27685621272914,
                37.79130421303685
              ],
              [
                -122.27640501085249,
                37.791755415261896
              ],
              [
                -122.27640238738029,
                37.7917627473755
              ],
              [
                -122.27639609364006,
                37.79177605437117
              ],
              [
                -122.27638852589226,
                37.7917886803956
              ],
              [
                -122.27637975701842,
                37.79180050385327
              ],
              [
                -122.2763698714676,
                37.79181141087782
              ],
              [
                -122.27635896444303,
                37.79182129642865
              ],
              [
                -122.27634714098537,
                37.79183006530249
              ],
              [
                -122.27633451496094,
                37.7918376330503
              ],
              [
                -122.27632120796527,
                37.79184392679052
              ],
              [
                -122.27631387596124,
                37.79184655022352
              ],
              [
                -122.27613011072069,
                37.792030315605956
              ],
              [
                -122.27613728818964,
                37.792042290489476
              ],
              [
                -122.27614358192987,
                37.792055597485145
              ],
              [
                -122.27614854105036,
                37.79206945729841
              ],
              [
                -122.27615211779205,
                37.7920837364517
              ],
              [
                -122.276154277709,
                37.79209829742895
              ],
              [
                -122.276155,
                37.792113
              ],
              [
                -122.276154277709,
                37.79212770257105
              ],
              [
                -122.27615211779205,
                37.7921422635483
              ],
              [
                -122.27614854105036,
                37.79215654270159
              ],
              [
                -122.27614358192987,
                37.792170402514856
              ],
              [
                -122.27613728818964,
                37.792183709510525
              ],
              [
                -122.27612972044184,
                37.79219633553495
              ],
              [
                -122.276120951568,
                37.79220815899262
              ],
              [
                -122.27611106601718,
                37.792219066017175
              ],
              [
                -122.27610015899262,
                37.792228951568006
              ],
              [
                -122.27608833553495,
                37.79223772044185
              ],
              [
                -122.27607570951052,
                37.792245288189655
              ],
              [
                -122.27606240251485,
                37.792251581929875
              ],
              [
                -122.27604854270159,
                37.792256541050364
              ],
              [
                -122.2760342635483,
                37.79226011779206
              ],
              [
                -122.27601970257105,
                37.792262277709
              ],
              [
                -122.276005,
                37.792263
              ],
              [
                -122.27599029742895,
                37.792262277709
              ],
              [
                -122.2759757364517,
                37.79226011779206
              ],
              [
                -122.27596145729841,
                37.792256541050364
              ],
              [
                -122.27594759748514,
                37.792251581929875
              ],
              [
                -122.27593429048947,
                37.792245288189655
              ],
              [
                -122.27592166446505,
                37.79223772044185
              ],
              [
                -122.27590984100738,
                37.792228951568006
              ],
              [
                -122.27589893398282,
                37.792219066017175
              ],
              [
                -122.27588904843199,
                37.79220815899262
              ],
              [
                -122.27588027955815,
                37.79219633553495
              ],
              [
                -122.27587271181035,
                37.792183709510525
              ],
              [
                -122.27586641807012,
                37.792170402514856
              ],
              [
                -122.27586145894963,
                37.79215654270159
              ],
              [
                -122.27585788220794,
                37.7921422635483
              ],
              [
                -122.275855722291,
                37.79212770257105
              ],
              [
                -122.27585499999999,
                37.792113
              ],
              [
                -122.275855722291,
                37.79209829742895
              ],
              [
                -122.27585788220794,
                37.7920837364517
              ],
              [
                -122.27586145894963,
                37.79206945729841
              ],
              [
                -122.27586641807012,
                37.792055597485145
              ],
              [
                -122.27587271181035,
                37.792042290489476
              ],
              [
                -122.27588027955815,
                37.79202966446505
              ],
              [
                -122.27588904843199,
                37.79201784100738
              ],
              [
                -122.27589893398282,
                37.792006933982826
              ],
              [
                -122.27590984100738,
                37.791997048431995
              ],
              [
                -122.27592166446505,
                37.791988279558154
              ],
              [
                -122.27593429048947,
                37.791980711810346
              ],
              [
                -122.27594759748514,
                37.791974418070126
              ],
              [
                -122.27596145729841,
                37.79196945894964
              ],
              [
                -122.2759757364517,
                37.79196588220794
              ],
              [
                -122.27599029742895,
                37.791963722291
              ],
              [
                -122.276005,
                37.791963
              ],
              [
                -122.27601970257105,
                37.791963722291
              ],
              [
                -122.2760342635483,
                37.79196588220794
              ],
              [
                -122.27604854270159,
                37.79196945894964
              ],
              [
                -122.27606240251485,
                37.791974418070126
              ],
              [
                -122.27607570951052,
                37.791980711810346
              ],
              [
                -122.27608768429373,
                37.791987889219186
              ],
              [
                -122.2762254005447,
                37.79185017286188
              ],
              [
                -122.27622026274882,
                37.79184888591101
              ],
              [
                -122.27620640293556,
                37.79184392679052
              ],
              [
                -122.27619309593989,
                37.7918376330503
              ],
              [
                -122.27618046991546,
                37.79183006530249
              ],
              [
                -122.27616864645779,
                37.79182129642865
              ],
              [
                -122.27615773943323,
                37.79181141087782
              ],
              [
                -122.2761478538824,
                37.79180050385327
              ],
              [
                -122.27613908500857,
                37.7917886803956
              ],
              [
                -122.27613151726077,
                37.79177605437117
              ],
              [
                -122.27612522352054,
                37.7917627473755
              ],
              [
                -122.27612026440005,
                37.791748887562235
              ],
              [
                -122.27611668765836,
                37.791734608408944
              ],
              [
                -122.27611452774141,
                37.791720047431696
              ],
              [
                -122.27611380545041,
                37.791705344860645
              ],
              [
                -122.27611452774141,
                37.791690642289595
              ],
              [
                -122.27611668765836,
                37.791676081312346
              ],
              [
                -122.27612026440005,
                37.791661802159055
              ],
              [
                -122.27612522352054,
                37.79164794234579
              ],
              [
                -122.27613151726077,
                37.79163463535012
              ],
              [
                -122.27613908500857,
                37.79162200932569
              ],
              [
                -122.2761478538824,
                37.791610185868024
              ],
              [
                -122.27615773943323,
                37.79159927884347
              ],
              [
                -122.27616864645779,
                37.79158939329264
              ],
              [
                -122.27618046991546,
                37.7915806244188
              ],
              [
                -122.27619309593989,
                37.79157305667099
              ],
              [
                -122.27620640293556,
                37.79156676293077
              ],
              [
                -122.27622026274882,
                37.79156180381028
              ],
              [
                -122.27623454190211,
                37.791558227068585
              ],
              [
                -122.27624910287936,
                37.791556067151646
              ],
              [
                -122.27626380545041,
                37.79155534486065
              ],
              [
                -122.27627850802146,
                37.791556067151646
              ],
              [
                -122.27629306899871,
                37.791558227068585
              ],
              [
                -122.276307348152,
                37.79156180381028
              ],
              [
                -122.27632120796527,
                37.79156676293077
              ],
              [
                -122.27633451496094,
                37.79157305667099
              ],
              [
                -122.27634714098537,
                37.7915806244188
              ],
              [
                -122.27635896444303,
                37.79158939329264
              ],
              [
                -122.2763698714676,
                37.79159927884347
              ],
              [
                -122.27637975701842,
                37.791610185868024
              ],
              [
                -122.27638852589226,
                37.79162200932569
              ],
              [
                -122.27639609364006,
                37.79163463535012
              ],
              [
                -122.27640238738029,
                37.79164794234579
              ],
              [
                -122.27640734650078,
                37.791661802159055
              ],
              [
                -122.2764086334233,
                37.79166693984179
              ],
              [
                -122.2768137863059,
                37.79126178664636
              ],
              [
                -122.27667921299118,
                37.79112721343556
              ],
              [
                -122.27664261094702,
                37.79116381550798
              ],
              [
                -122.27664978841598,
                37.7911757903915
              ],
              [
                -122.27665608215621,
                37.79118909738717
              ],
              [
                -122.2766610412767,
                37.79120295720043
              ],
              [
                -122.27666461801839,
                37.791217236353724
              ],
              [
                -122.27666677793533,
                37.79123179733097
              ],
              [
                -122.27666750022634,
                37.79124649990202
              ],
              [
                -122.27666677793533,
                37.79126120247307
              ],
              [
                -122.27666461801839,
                37.79127576345032
              ],
              [
                -122.2766610412767,
                37.79129004260361
              ],
              [
                -122.27665608215621,
                37.79130390241688
              ],
              [
                -122.27664978841598,
                37.79131720941255
              ],
              [
                -122.27664222066818,
                37.791329835436976
              ],
              [
                -122.27663345179434,
                37.791341658894645
              ],
              [
                -122.27662356624352,
                37.7913525659192
              ],
              [
                -122.27661265921896,
                37.79136245147003
              ],
              [
                -122.27660083576129,
                37.79137122034387
              ],
              [
                -122.27658820973686,
                37.79137878809168
              ],
              [
                -122.27657490274119,
                37.7913850818319
              ],
              [
                -122.27656104292792,
                37.791390040952386
              ],
              [
                -122.27654676377463,
                37.791393617694084
              ],
              [
                -122.27653220279738,
                37.79139577761102
              ],
              [
                -122.27651750022633,
                37.79139649990202
              ],
              [
                -122.27650279765528,
                37.79139577761102
              ],
              [
                -122.27648823667803,
                37.791393617694084
              ],
              [
                -122.27647395752474,
                37.791390040952386
              ],
              [
                -122.27646009771148,
                37.7913850818319
              ],
              [
                -122.27644679071581,
                37.79137878809168
              ],
              [
                -122.27643416469138,
                37.79137122034387
              ],
              [
                -122.27642234123371,
                37.79136245147003
              ],
              [
                -122.27641143420915,
                37.7913525659192
              ],
              [
                -122.27640154865833,
                37.791341658894645
              ],
              [
                -122.27639277978449,
                37.791329835436976
              ],
              [
                -122.27638521203669,
                37.79131720941255
              ],
              [
                -122.27637891829646,
                37.79130390241688
              ],
              [
                -122.27637395917597,
                37.79129004260361
              ],
              [
                -122.27637038243428,
                37.79127576345032
              ],
              [
                -122.27636822251733,
                37.79126120247307
              ],
              [
                -122.27636750022633,
                37.79124649990202
              ],
              [
                -122.27636822251733,
                37.79123179733097
              ],
              [
                -122.27637038243428,
                37.791217236353724
              ],
              [
                -122.27637395917597,
                37.79120295720043
              ],
              [
                -122.27637891829646,
                37.79118909738717
              ],
              [
                -122.27638521203669,
                37.7911757903915
              ],
              [
                -122.27639277978449,
                37.79116316436707
              ],
              [
                -122.27640154865833,
                37.7911513409094
              ],
              [
                -122.27641143420915,
                37.79114043388485
              ],
              [
                -122.27642234123371,
                37.79113054833402
              ],
              [
                -122.27643416469138,
                37.79112177946018
              ],
              [
                -122.27644679071581,
                37.79111421171237
              ],
              [
                -122.27646009771148,
                37.79110791797215
              ],
              [
                -122.27647395752474,
                37.79110295885166
              ],
              [
                -122.27648823667803,
                37.79109938210996
              ],
              [
                -122.27650279765528,
                37.791097222193024
              ],
              [
                -122.27651750022633,
                37.791096499902025
              ],
              [
                -122.27653220279738,
                37.791097222193024
              ],
              [
                -122.27654676377463,
                37.79109938210996
              ],
              [
                -122.27656104292792,
                37.79110295885166
              ],
              [
                -122.27657490274119,
                37.79110791797215
              ],
              [
                -122.27658820973686,
                37.79111421171237
              ],
              [
                -122.27660018452005,
                37.7911213891212
              ],
              [
                -122.27663678656793,
                37.791084787045065
              ],
              [
                -122.27613401007335,
                37.79058201093871
              ],
              [
                -122.27616414550138,
                37.790654271158616
              ],
              [
                -122.27616429806568,
                37.79065469588895
              ],
              [
                -122.27616440723793,
                37.79065513378523
              ],
              [
                -122.27616447191596,
                37.79065558042656
              ],
              [
                -122.27616449144679,
                37.79065603130379
              ],
              [
                -122.27616446563326,
                37.79065648186498
              ],
              [
                -122.27616439473594,
                37.7906569275614
              ],
              [
                -122.27616427947063,
                37.79065736389342
              ],
              [
                -122.276164121001,
                37.79065778645597
              ],
              [
                -122.27616392092692,
                37.79065819098296
              ],
              [
                -122.27616368126826,
                37.7906585733904
              ],
              [
                -122.27616340444457,
                37.79065892981763
              ],
              [
                -122.27616309325057,
                37.79065925666626
              ],
              [
                -122.276162750828,
                37.7906595506365
              ],
              [
                -122.27616238063383,
                37.79065980876052
              ],
              [
                -122.27616198640547,
                37.790660028432384
              ],
              [
                -122.27616157212293,
                37.790660207434335
              ],
              [
                -122.27616114196867,
                37.790660343959225
              ],
              [
                -122.27596714196866,
                37.790711343959224
              ],
              [
                -122.27596672075936,
                37.79071143334863
              ],
              [
                -122.27596629292599,
                37.79071148199381
              ],
              [
                -122.27596586240051,
                37.79071148944769
              ],
              [
                -122.27596543313963,
                37.79071145564176
              ],
              [
                -122.27596500908842,
                37.79071138088671
              ],
              [
                -122.27596459414409,
                37.79071126586958
              ],
              [
                -122.27596419212013,
                37.79071111164742
              ],
              [
                -122.27596380671129,
                37.79071091963758
              ],
              [
                -122.27596344145965,
                37.79071069160473
              ],
              [
                -122.27596309972202,
                37.790710429644555
              ],
              [
                -122.27596278463908,
                37.79071013616459
              ],
              [
                -122.27596249910658,
                37.79070981386203
              ],
              [
                -122.2759622457487,
                37.79070946569896
              ],
              [
                -122.27596202689386,
                37.79070909487513
              ],
              [
                -122.27596184455345,
                37.79070870479858
              ],
              [
                -122.27594733937318,
                37.79067334842165
              ],
              [
                -122.2758981471035,
                37.790686342606094
              ],
              [
                -122.27589772715504,
                37.790686432304106
              ],
              [
                -122.27589730055998,
                37.79068648148835
              ],
              [
                -122.27589687121761,
                37.79068648970926
              ],
              [
                -122.2758964430524,
                37.79068645689169
              ],
              [
                -122.275896019978,
                37.790686383335604
              ],
              [
                -122.27589560586156,
                37.79068626971336
              ],
              [
                -122.27589520448834,
                37.790686117063515
              ],
              [
                -122.2758948195271,
                37.790685926781386
              ],
              [
                -122.27589445449661,
                37.790685700606254
              ],
              [
                -122.27589411273347,
                37.79068544060549
              ],
              [
                -122.27589379736158,
                37.79068514915565
              ],
              [
                -122.2758935112636,
                37.79068482892074
              ],
              [
                -122.27589325705466,
                37.7906844828279
              ],
              [
                -122.27589303705835,
                37.79068411404061
              ],
              [
                -122.27589285328557,
                37.79068372592979
              ],
              [
                -122.27584124589325,
                37.79055973414304
              ],
              [
                -122.27594682287838,
                37.79045949912832
              ],
              [
                -122.27599818877577,
                37.790446189746
              ],
              [
                -122.27597999985332,
                37.79042800083759
              ]
            ]
          ]
        ]
      }
    }
  ]
}