{
  "type": "FeatureCollection",
  "name": "Alameda_TravelAnalysisZone_964",
  "crs": {
    "type": "name",
    "properties": {
      "name": "urn:ogc:def:crs:OGC:1.3:CRS84"
    }
  },
  "features": [
    {
      "type": "Feature",
      "properties": {
        "SUPERD": 18,
        "TAZ1454": 964,
        "Shape__Are": 0.0,
        "Shape__Len": 0.0
      },
      "geometry": {
        "type": "MultiPolygon",
        "coordinates": [
          [
            [
              [
                -122.32768099972188,
                37.780828001083826
              ],
              [
                -122.33228099966087,
                37.788128001089056
              ],
              [
                -122.332380999925,
                37.79042800103476
              ],
              [
                -122.33218899996234,
                37.79762400093929
              ],
              [
                -122.33218099956622,
                37.79792800024059
              ],
              [
                -122.31769699941182,
                37.79440700079306
              ],
              [
                -122.31265000025755,
                37.793181000310916
              ],
              [
                -122.30903699993311,
                37.79230300039031
              ],
              [
                -122.30337999944385,
                37.79092800071284
              ],
              [
                -122.29823800033851,
                37.79086800067949
              ],
              [
                -122.29488000014491,
                37.79082800081521
              ],
              [
                -122.29482400018469,
                37.7898030008029
              ],
              [
                -122.29437999970084,
                37.78942800071572
              ],
              [
                -122.29430799944029,
                37.78933400048482
              ],
              [
                -122.29387999950791,
                37.78892800111586
              ],
              [
                -122.29207999999723,
                37.78732800093209
              ],
              [
                -122.29178000009095,
                37.78642800030536
              ],
              [
                -122.29178000046304,
                37.78512800042424
              ],
              [
                -122.29177999997871,
                37.78462800108406
              ],
              [
                -122.29178000047203,
                37.78382800025772
              ],
              [
                -122.29182100022913,
                37.783749000277055
              ],
              [
                -122.29178000049195,
                37.7831280010215
              ],
              [
                -122.29177999958331,
                37.78232800088695
              ],
              [
                -122.29188000049776,
                37.780228000459
              ],
              [
                -122.29208000029672,
                37.779928000960545
              ],
              [
                -122.29177999979929,
                37.778828000301914
              ],
              [
                -122.2917799999894,
                37.778228000459976
              ],
              [
                -122.29177999948772,
                37.7779280005128
              ],
              [
                -122.29167999985627,
                37.77682800067205
              ],
              [
                -122.2915800003796,
                37.77552800051386
              ],
              [
                -122.29148000015635,
                37.77452800102387
              ],
              [
                -122.29145499966495,
                37.77319000054088
              ],
              [
                -122.2914549995585,
                37.773126000500525
              ],
              [
                -122.29148000037729,
                37.76982800093587
              ],
              [
                -122.29317799995867,
                37.7701550007394
              ],
              [
                -122.29407999998624,
                37.770328000535336
              ],
              [
                -122.3027799997927,
                37.7722280006209
              ],
              [
                -122.30207999940059,
                37.77362800086543
              ],
              [
                -122.305121999759,
                37.77479800111633
              ],
              [
                -122.30727999950092,
                37.77562800075867
              ],
              [
                -122.31017999963274,
                37.775828000913286
              ],
              [
                -122.31428000038818,
                37.776328000275434
              ],
              [
                -122.31527999997623,
                37.77642800040856
              ],
              [
                -122.31778000011447,
                37.77922800101955
              ],
              [
                -122.32308099998333,
                37.779328001025775
              ],
              [
                -122.32508099989312,
                37.7807280011297
              ],
              [
                -122.32768099972188,
                37.780828001083826
              ]
            ]
          ]
        ]
      }
    }
  ]
}