{
  "type": "FeatureCollection",
  "name": "Alameda_TravelAnalysisZone_959",
  "crs": {
    "type": "name",
    "properties": {
      "name": "urn:ogc:def:crs:OGC:1.3:CRS84"
    }
  },
  "features": [
    {
      "type": "Feature",
      "properties": {
        "SUPERD": 18,
        "TAZ1454": 959,
        "Shape__Are": 0.0,
        "Shape__Len": 0.0
      },
      "geometry": {
        "type": "MultiPolygon",
        "coordinates": [
          [
            [
              [
                -122.27558000006306,
                37.77152800057538
              ],
              [
                -122.2763480001495,
                37.771573000709175
              ],
              [
                -122.27728000048224,
                37.77162800046059
              ],
              [
                -122.27727999963238,
                37.77262800046915
              ],
              [
                -122.27718000050372,
                37.77352800075407
              ],
              [
                -122.27717999952398,
                37.77442800047666
              ],
              [
                -122.27708000029354,
                37.77542800033569
              ],
              [
                -122.27607999955055,
                37.775328000674236
              ],
              [
                -122.27317999991436,
                37.77532800056358
              ],
              [
                -122.27098000036437,
                37.775228000719224
              ],
              [
                -122.26997999952447,
                37.7752280006068
              ],
              [
                -122.26957999973875,
                37.775128000444404
              ],
              [
                -122.2690799994561,
                37.77512800046847
              ],
              [
                -122.26847999981766,
                37.775128000404585
              ],
              [
                -122.26778000014455,
                37.77522800042059
              ],
              [
                -122.26648000019341,
                37.775028000758994
              ],
              [
                -122.26518000010172,
                37.77502800096897
              ],
              [
                -122.26388000011359,
                37.77502800035459
              ],
              [
                -122.2639800001708,
                37.773128000633335
              ],
              [
                -122.26398000016276,
                37.77132800107875
              ],
              [
                -122.26401200010314,
                37.77072700073744
              ],
              [
                -122.2640800001832,
                37.769428000965675
              ],
              [
                -122.26418000045572,
                37.767328001031764
              ],
              [
                -122.26418000045545,
                37.76662800093265
              ],
              [
                -122.26427999946989,
                37.7656280004061
              ],
              [
                -122.26428000026284,
                37.76532800029157
              ],
              [
                -122.2654799999721,
                37.76592800098962
              ],
              [
                -122.26657999982302,
                37.76643600073636
              ],
              [
                -122.2667800000505,
                37.766528000655725
              ],
              [
                -122.26767999994976,
                37.76706800109222
              ],
              [
                -122.26777999974138,
                37.76712800061534
              ],
              [
                -122.2687799999775,
                37.767628001083
              ],
              [
                -122.2697800001759,
                37.768028000260585
              ],
              [
                -122.27117999998096,
                37.768628000571155
              ],
              [
                -122.2712530003794,
                37.76865200049828
              ],
              [
                -122.27178000001612,
                37.76882800024365
              ],
              [
                -122.27237999988341,
                37.7690280004716
              ],
              [
                -122.27337999996648,
                37.769528000728954
              ],
              [
                -122.2732800004239,
                37.771428000685965
              ],
              [
                -122.27558000006306,
                37.77152800057538
              ]
            ]
          ]
        ]
      }
    }
  ]
}