{
  "type": "FeatureCollection",
  "name": "Alameda_TravelAnalysisZone_963",
  "crs": {
    "type": "name",
    "properties": {
      "name": "urn:ogc:def:crs:OGC:1.3:CRS84"
    }
  },
  "features": [
    {
      "type": "Feature",
      "properties": {
        "SUPERD": 18,
        "TAZ1454": 963,
        "Shape__Are": 0.0,
        "Shape__Len": 0.0
      },
      "geometry": {
        "type": "MultiPolygon",
        "coordinates": [
          [
            [
              [
                -122.28648000033803,
                37.763929000462156
              ],
              [
                -122.28758000039184,
                37.76482800065004
              ],
              [
                -122.28898000045405,
                37.76612800043399
              ],
              [
                -122.29148000039828,
                37.76902800083986
              ],
              [
                -122.29148000037729,
                37.76982800093587
              ],
              [
                -122.2914549995585,
                37.773126000500525
              ],
              [
                -122.29145499966495,
                37.77319000054088
              ],
              [
                -122.29148000015635,
                37.77452800102387
              ],
              [
                -122.2915800003796,
                37.77552800051386
              ],
              [
                -122.29167999985627,
                37.77682800067205
              ],
              [
                -122.29148700032862,
                37.7768130007629
              ],
              [
                -122.29038000029348,
                37.77672800032106
              ],
              [
                -122.28977999950263,
                37.77672800051602
              ],
              [
                -122.2891800001476,
                37.77662800037723
              ],
              [
                -122.28837999946883,
                37.776628000829405
              ],
              [
                -122.28627999985288,
                37.776628000744296
              ],
              [
                -122.2856800000062,
                37.77662800079793
              ],
              [
                -122.28268000045757,
                37.77562800065209
              ],
              [
                -122.281837000466,
                37.775575000956614
              ],
              [
                -122.2810799995049,
                37.77552800080999
              ],
              [
                -122.2796799998489,
                37.77552800057036
              ],
              [
                -122.27708000029354,
                37.77542800033569
              ],
              [
                -122.27717999952398,
                37.77442800047666
              ],
              [
                -122.27718000050372,
                37.77352800075407
              ],
              [
                -122.27727999963238,
                37.77262800046915
              ],
              [
                -122.27728000048224,
                37.77162800046059
              ],
              [
                -122.27877999945645,
                37.77162800108064
              ],
              [
                -122.27871299977149,
                37.768567001108075
              ],
              [
                -122.27902499998444,
                37.768558001002745
              ],
              [
                -122.27924899973017,
                37.76855400039358
              ],
              [
                -122.27902599918824,
                37.76855798315708
              ],
              [
                -122.27902599943417,
                37.76855796783265
              ],
              [
                -122.27902599133476,
                37.7685578697604
              ],
              [
                -122.27897610578145,
                37.76818105495984
              ],
              [
                -122.27904069892178,
                37.7680863042785
              ],
              [
                -122.28053957088848,
                37.76704282175124
              ],
              [
                -122.28053965200615,
                37.76704275886037
              ],
              [
                -122.2805397262498,
                37.7670426879857
              ],
              [
                -122.28053979283723,
                37.76704260987391
              ],
              [
                -122.28053985106695,
                37.76704252534794
              ],
              [
                -122.28053990032545,
                37.7670424352983
              ],
              [
                -122.2805399400938,
                37.7670423406737
              ],
              [
                -122.28053996995303,
                37.76704224247102
              ],
              [
                -122.28053998958856,
                37.767042141724886
              ],
              [
                -122.28053999879351,
                37.76704203949667
              ],
              [
                -122.28053999747091,
                37.7670419368634
              ],
              [
                -122.28049799788155,
                37.76638893613822
              ],
              [
                -122.28049798678373,
                37.76638883862473
              ],
              [
                -122.2804979661806,
                37.766388742668724
              ],
              [
                -122.28049793627066,
                37.76638864919446
              ],
              [
                -122.28049789734196,
                37.76638855910229
              ],
              [
                -122.28049784976949,
                37.76638847325998
              ],
              [
                -122.28049779401145,
                37.76638839249436
              ],
              [
                -122.28049773060492,
                37.76638831758339
              ],
              [
                -122.28049766016063,
                37.76638824924859
              ],
              [
                -122.2804975833571,
                37.76638818814818
              ],
              [
                -122.2804975009341,
                37.766388134870674
              ],
              [
                -122.28049741368554,
                37.76638808992925
              ],
              [
                -122.28049732245181,
                37.76638805375678
              ],
              [
                -122.28049722811166,
                37.76638802670168
              ],
              [
                -122.28049713157377,
                37.76638800902454
              ],
              [
                -122.28049703376803,
                37.76638800089564
              ],
              [
                -122.28049693563648,
                37.76638800239327
              ],
              [
                -122.28049683812435,
                37.766388013503004
              ],
              [
                -122.28049674217087,
                37.76638803411784
              ],
              [
                -122.28049664870025,
                37.766388064039205
              ],
              [
                -122.28049655861284,
                37.7663881029789
              ],
              [
                -122.28049647277633,
                37.76638815056186
              ],
              [
                -122.28049639201753,
                37.76638820632975
              ],
              [
                -122.27987286380522,
                37.76686561444513
              ],
              [
                -122.28207999955008,
                37.76362800106081
              ],
              [
                -122.28648000033803,
                37.763929000462156
              ]
            ]
          ]
        ]
      }
    }
  ]
}